building_id,street_addr,city,state,zip,lat,lon,net_status,fiber_distance_m,market,last_verified
1,6478 Main St,Greenville,SC,19494,41.425486,-101.411951,ON_NET,0,Nashville,2023-03-01
2,624 1st Ave,Pittsburgh,PA,66838,33.363443,-103.609945,NEAR_NET,201,Greenville,2024-03-10
3,2038 Pine St,Lone Tree,CO,92657,37.548664,-114.215634,NEAR_NET,72,Nashville,2024-08-22
4,3632 Main St,Atlanta,GA,82963,42.169369,-104.344139,ON_NET,0,Colorado Springs,2024-07-07
5,9189 2nd Ave,Topeka,KS,23507,36.632003,-109.583702,ON_NET,0,Charlotte,2023-04-10
6,1038 Elm St,Philadelphia,PA,17812,37.380192,-107.446217,ON_NET,0,Greenville,2024-03-13
7,9603 Cedar Ave,Columbia,SC,57393,30.99534,-111.915692,ON_NET,0,Baltimore,2025-03-09
8,9421 Maple Ave,Kansas City,MO,78838,34.902327,-105.152135,ON_NET,0,Richmond,2023-10-22
9,1944 Broadway,Baltimore,MD,64804,28.299242,-105.130837,NEAR_NET,71,Richmond,2024-03-07
10,9153 Elm St,Denver,CO,51123,31.802447,-105.252676,ON_NET,0,Richmond,2024-08-16
11,1543 Maple Ave,Nashville,TN,72141,38.940841,-100.975,ON_NET,0,Baltimore,2024-12-19
12,9479 Cedar Ave,Arlington,VA,47302,39.332556,-113.305604,NEAR_NET,173,Charlotte,2023-01-24
13,2763 Elm St,Knoxville,TN,25347,34.87386,-103.273117,ON_NET,0,Kansas City,2023-05-13
14,6415 Cedar Ave,St. Louis,MO,20561,28.327326,-106.024664,ON_NET,0,Kansas City,2025-06-23
15,9024 Maple Ave,Greensboro,NC,64433,44.729342,-110.240846,NEAR_NET,104,Raleigh,2025-09-07
16,1369 2nd Ave,Kansas City,MO,29830,29.639137,-103.500041,NEAR_NET,79,Richmond,2025-05-01
17,4314 Maple Ave,Baltimore,MD,10536,27.913528,-108.018864,ON_NET,0,Nashville,2024-08-02
18,8455 Elm St,Greenville,SC,95847,38.524002,-100.809893,ON_NET,0,Pittsburgh,2025-03-28
19,6531 Oak St,Harrisburg,PA,61658,27.070742,-109.514343,NEAR_NET,104,Denver,2023-07-15
20,7229 2nd Ave,Overland Park,KS,24408,31.801073,-100.788634,NEAR_NET,33,Denver,2024-08-03
21,5967 Elm St,Charlotte,NC,13342,26.406312,-103.11929,NEAR_NET,13,Raleigh,2023-06-02
22,9877 Market St,Norfolk,VA,72147,27.456845,-112.734054,ON_NET,0,Richmond,2024-05-06
23,1417 2nd Ave,Knoxville,TN,23393,39.993478,-111.105268,ON_NET,0,Richmond,2025-04-28
24,3372 Broadway,Charlotte,NC,57415,27.932051,-108.147586,ON_NET,0,Denver,2025-02-15
25,1501 Maple Ave,Harrisburg,PA,77947,32.333996,-102.505631,ON_NET,0,Wichita,2024-06-29
26,5411 Pine St,Philadelphia,PA,90377,41.230225,-114.773891,NEAR_NET,90,Wichita,2025-04-05
27,3724 Pine St,St. Louis,MO,77847,34.855637,-110.96506,NEAR_NET,141,Denver,2025-03-20
28,4256 Pine St,Norfolk,VA,89316,44.130302,-106.708415,ON_NET,0,Baltimore,2023-12-24
29,3622 1st Ave,Greenville,SC,39733,34.4016,-105.066062,ON_NET,0,Richmond,2024-10-01
30,7865 Market St,Baltimore,MD,94296,26.69557,-109.908785,ON_NET,0,Raleigh,2025-03-12
31,2934 Oak St,St. Louis,MO,93341,31.650344,-112.012354,NEAR_NET,7,Baltimore,2024-02-10
32,1401 2nd Ave,Knoxville,TN,32282,44.862247,-100.413233,ON_NET,0,Nashville,2025-07-15
33,2404 Elm St,Memphis,TN,88101,44.606119,-109.859024,ON_NET,0,Charlotte,2023-06-09
34,2156 Main St,Philadelphia,PA,11866,40.98714,-110.895551,NEAR_NET,150,Boulder,2024-06-23
35,3201 Pine St,Greensboro,NC,13669,30.036696,-104.3945,ON_NET,0,Wichita,2025-02-21
36,4259 Broadway,Rockville,MD,64920,41.6839,-100.913568,NEAR_NET,89,Baltimore,2023-12-29
37,9567 Broadway,Memphis,TN,65132,41.542794,-113.172532,ON_NET,0,Colorado Springs,2024-06-28
38,7221 2nd Ave,Charlotte,NC,89764,25.07865,-111.987557,ON_NET,0,Colorado Springs,2023-05-25
39,1981 Broadway,Memphis,TN,18094,31.519643,-107.775231,ON_NET,0,Greenville,2024-05-09
40,4081 Pine St,Wichita,KS,46296,25.843978,-101.466179,ON_NET,0,Richmond,2024-07-29
41,7272 Market St,Denver,CO,90285,44.467205,-109.092065,ON_NET,0,Wichita,2024-12-10
42,8335 Broadway,Norfolk,VA,72657,35.155037,-103.714837,ON_NET,0,Greenville,2025-06-16
43,3329 Cedar Ave,Arlington,VA,27974,33.332741,-105.885466,ON_NET,0,Charlotte,2023-03-16
44,1208 Pine St,St. Louis,MO,97749,31.055602,-101.835248,NEAR_NET,214,Colorado Springs,2025-08-20
45,4156 2nd Ave,Greenville,SC,71307,29.391757,-114.287562,NEAR_NET,114,Raleigh,2025-06-25
46,3675 2nd Ave,Nashville,TN,66560,44.881452,-106.057146,NEAR_NET,92,Raleigh,2023-07-20
47,1520 Market St,Columbia,SC,12553,31.759594,-106.880062,ON_NET,0,Baltimore,2023-01-19
48,8487 Elm St,Savannah,GA,48725,35.245246,-100.964362,ON_NET,0,Wichita,2025-09-22
49,4361 Maple Ave,Wichita,KS,15188,43.117974,-102.723271,NEAR_NET,81,Colorado Springs,2025-04-19
50,4247 Oak St,Augusta,GA,29577,35.731978,-107.721739,NEAR_NET,94,Richmond,2024-12-18
51,4582 Main St,Greenville,SC,34031,33.506341,-101.086211,NEAR_NET,171,Denver,2024-10-11
52,1382 Elm St,Topeka,KS,39151,26.332451,-112.941625,ON_NET,0,Richmond,2023-01-12
53,6854 Maple Ave,Charleston,SC,91487,27.584496,-107.903725,ON_NET,0,Wichita,2025-08-18
54,4300 Main St,Overland Park,KS,33743,29.035365,-104.679886,ON_NET,0,Kansas City,2024-06-27
55,7312 Broadway,St. Louis,MO,98100,28.557998,-105.205015,NEAR_NET,32,Denver,2023-09-14
56,312 Broadway,Denver,CO,82227,44.561033,-107.713524,ON_NET,0,Wichita,2025-08-15
57,7090 Cedar Ave,Nashville,TN,81553,41.692279,-105.896291,ON_NET,0,Greenville,2023-11-12
58,5624 Pine St,Kansas City,MO,93358,27.794376,-114.841571,ON_NET,0,Denver,2025-05-07
59,1168 Maple Ave,Charlotte,NC,66458,28.26493,-101.267273,ON_NET,0,Raleigh,2025-06-10
60,4629 Elm St,Philadelphia,PA,41747,38.85371,-100.678562,ON_NET,0,Colorado Springs,2023-06-11
61,69 Maple Ave,Norfolk,VA,57728,44.235731,-114.589345,ON_NET,0,Greenville,2023-11-28
62,5081 Pine St,Kansas City,MO,56738,28.659158,-105.029992,NEAR_NET,97,Boulder,2024-05-01
63,3302 Pine St,Arlington,VA,76156,40.524762,-101.362775,NEAR_NET,61,Boulder,2023-05-28
64,692 Oak St,Augusta,GA,12948,30.992921,-109.445048,NEAR_NET,191,Boulder,2024-08-22
65,9784 Oak St,Pittsburgh,PA,52747,39.413545,-107.412861,NEAR_NET,162,Kansas City,2025-01-11
66,2381 Main St,Silver Spring,MD,77237,37.546642,-111.007782,NEAR_NET,136,Greenville,2023-05-23
67,9323 Main St,Philadelphia,PA,99977,36.68123,-113.392446,ON_NET,0,Pittsburgh,2025-09-06
68,520 Main St,Kansas City,MO,27444,37.742398,-114.392741,NEAR_NET,88,Raleigh,2025-05-05
69,841 Main St,Memphis,TN,92080,35.628877,-103.668395,NEAR_NET,6,Kansas City,2023-01-04
70,8250 Broadway,Nashville,TN,22051,38.18599,-100.990755,NEAR_NET,124,Baltimore,2024-04-30
71,4360 Pine St,Richmond,VA,36898,29.614723,-109.748984,ON_NET,0,Richmond,2024-05-20
72,7858 Maple Ave,Atlanta,GA,16127,37.33948,-109.641445,ON_NET,0,Boulder,2024-09-06
73,4170 Maple Ave,Durham,NC,91415,36.355234,-100.187038,NEAR_NET,44,Denver,2024-05-12
74,1640 Pine St,Arlington,VA,98566,34.792286,-110.633064,ON_NET,0,Kansas City,2024-04-20
75,1951 Broadway,Knoxville,TN,36116,31.233493,-101.287814,ON_NET,0,Richmond,2023-01-18
76,1262 Broadway,Norfolk,VA,68910,44.879339,-105.802725,NEAR_NET,132,Wichita,2023-03-18
77,2332 Broadway,Baltimore,MD,44315,44.054807,-101.989076,ON_NET,0,Pittsburgh,2024-06-04
78,5993 Pine St,Richmond,VA,75259,42.954114,-107.29211,ON_NET,0,Denver,2023-06-12
79,7395 Oak St,Fort Collins,CO,49577,39.543655,-106.242718,ON_NET,0,Raleigh,2023-11-20
80,38 Market St,Topeka,KS,54338,41.782216,-101.80062,ON_NET,0,Wichita,2024-12-31
81,4158 Market St,Colorado Springs,CO,18516,32.857988,-114.981888,ON_NET,0,Nashville,2023-03-20
82,4518 Main St,Columbia,SC,46783,27.034197,-112.52014,ON_NET,0,Kansas City,2024-10-12
83,4363 Oak St,Raleigh,NC,76972,31.312027,-111.597755,NEAR_NET,140,Raleigh,2025-06-24
84,9089 Broadway,Fort Collins,CO,36664,39.391452,-100.742141,NEAR_NET,79,Baltimore,2024-02-25
85,2280 Maple Ave,Memphis,TN,73645,25.979538,-113.901656,NEAR_NET,71,Colorado Springs,2023-06-24
86,5640 Maple Ave,Knoxville,TN,49029,30.114856,-111.081179,ON_NET,0,Pittsburgh,2023-09-24
87,3920 Maple Ave,Augusta,GA,73331,36.146434,-105.915517,ON_NET,0,Colorado Springs,2024-10-20
88,3415 Broadway,Charlotte,NC,75152,36.007731,-106.794791,ON_NET,0,Charlotte,2025-02-16
89,2297 Broadway,Knoxville,TN,35219,29.881713,-102.620426,ON_NET,0,Greenville,2023-04-04
90,6044 Maple Ave,Greenville,SC,84660,29.042837,-100.301226,NEAR_NET,185,Raleigh,2024-01-28
91,8597 Pine St,Augusta,GA,59396,30.404797,-111.281665,NEAR_NET,109,Richmond,2023-10-12
92,2072 Broadway,Rockville,MD,79366,37.592538,-112.94292,ON_NET,0,Wichita,2023-04-05
93,6310 Oak St,Richmond,VA,94645,33.917168,-114.309154,ON_NET,0,Denver,2023-05-11
94,7764 Elm St,Fort Collins,CO,74202,25.003574,-105.872816,NEAR_NET,203,Greenville,2025-05-25
95,4080 1st Ave,Knoxville,TN,39333,28.087568,-107.835484,NEAR_NET,72,Pittsburgh,2023-04-22
96,9045 Main St,Nashville,TN,10179,40.645972,-103.488652,ON_NET,0,Denver,2024-10-22
97,4135 Broadway,Richmond,VA,93399,33.748611,-111.457661,NEAR_NET,113,Boulder,2023-03-14
98,9560 Pine St,Arlington,VA,60866,30.217638,-111.857308,ON_NET,0,Denver,2023-01-11
99,7557 Maple Ave,Harrisburg,PA,51465,37.891513,-113.25661,ON_NET,0,Richmond,2024-06-22
100,4057 Main St,Columbia,MO,63976,39.093073,-104.610967,ON_NET,0,Denver,2023-07-18
101,6891 1st Ave,Memphis,TN,43719,29.55681,-106.364836,NEAR_NET,181,Charlotte,2023-08-21
102,5548 Oak St,Nashville,TN,57489,38.651334,-102.971195,ON_NET,0,Kansas City,2025-01-26
103,3372 Cedar Ave,Pittsburgh,PA,36268,31.234315,-112.300067,ON_NET,0,Wichita,2024-04-21
104,4842 1st Ave,St. Louis,MO,91736,34.915295,-102.809698,ON_NET,0,Wichita,2024-05-11
105,934 Elm St,Augusta,GA,29186,43.438471,-100.815376,ON_NET,0,Denver,2025-09-24
106,6815 Main St,Baltimore,MD,17882,28.682097,-106.744629,ON_NET,0,Baltimore,2025-06-23
107,1864 1st Ave,Charleston,SC,31709,31.584855,-102.782683,ON_NET,0,Greenville,2025-02-03
108,5118 Oak St,Nashville,TN,59005,44.699658,-106.636527,ON_NET,0,Boulder,2023-01-03
109,1333 Market St,Topeka,KS,65074,44.110297,-101.855624,NEAR_NET,36,Wichita,2024-01-25
110,7095 1st Ave,Columbia,SC,16456,39.10513,-102.935737,ON_NET,0,Greenville,2025-07-30
111,5307 Market St,Nashville,TN,72198,25.605641,-106.162027,ON_NET,0,Pittsburgh,2025-02-24
112,6163 Main St,Atlanta,GA,70824,26.251599,-113.801151,NEAR_NET,87,Kansas City,2023-07-19
113,5956 Maple Ave,Topeka,KS,53905,44.153792,-109.254677,NEAR_NET,191,Kansas City,2025-02-03
114,4882 Main St,Columbia,SC,88062,43.329192,-109.509701,NEAR_NET,85,Boulder,2023-01-25
115,7795 Cedar Ave,Kansas City,MO,60661,40.795977,-113.703159,ON_NET,0,Richmond,2023-05-16
116,152 Maple Ave,Nashville,TN,29833,37.145085,-104.916997,NEAR_NET,62,Charlotte,2024-04-16
117,1304 Broadway,Charleston,SC,35862,32.833708,-102.399061,NEAR_NET,78,Raleigh,2023-03-08
118,9063 Broadway,Fort Collins,CO,52697,28.213848,-106.398314,ON_NET,0,Boulder,2023-03-15
119,1387 Pine St,Arlington,VA,22638,33.421206,-114.826482,NEAR_NET,88,Richmond,2023-06-27
120,6839 Cedar Ave,Kansas City,MO,91304,42.825251,-103.524,ON_NET,0,Greenville,2025-05-17
121,4823 Maple Ave,Topeka,KS,84302,30.353318,-103.810848,ON_NET,0,Kansas City,2023-07-23
122,3053 Pine St,Nashville,TN,40867,28.066444,-113.262517,ON_NET,0,Nashville,2023-07-12
123,6499 Maple Ave,Greenville,SC,42237,35.14649,-103.470714,ON_NET,0,Boulder,2024-10-31
124,1686 Main St,Nashville,TN,72228,42.6565,-103.466703,ON_NET,0,Richmond,2025-07-25
125,4821 Pine St,Greenville,SC,25625,26.007823,-109.0074,NEAR_NET,63,Nashville,2023-07-18
126,8409 2nd Ave,Topeka,KS,68866,37.060844,-111.624973,ON_NET,0,Pittsburgh,2025-08-26
127,9777 Elm St,Denver,CO,55835,29.352908,-105.530628,ON_NET,0,Colorado Springs,2023-02-15
128,636 Elm St,St. Louis,MO,95412,43.279103,-112.221156,ON_NET,0,Charlotte,2024-02-23
129,5125 1st Ave,Greenville,SC,36661,25.629332,-107.434378,ON_NET,0,Richmond,2023-03-06
130,6486 Broadway,Atlanta,GA,30257,37.783639,-101.367289,ON_NET,0,Colorado Springs,2024-02-12
131,4651 Maple Ave,Norfolk,VA,64767,44.063777,-104.685428,NEAR_NET,22,Nashville,2025-06-23
132,6833 Main St,Columbia,SC,57681,37.889564,-105.860967,ON_NET,0,Raleigh,2023-07-28
133,2575 Oak St,Fort Collins,CO,24881,41.407372,-106.093265,ON_NET,0,Charlotte,2024-04-16
134,253 Main St,Raleigh,NC,82292,27.849936,-112.097024,ON_NET,0,Raleigh,2023-04-02
135,6085 Broadway,Silver Spring,MD,32503,27.917737,-104.249425,NEAR_NET,62,Greenville,2023-06-25
136,6297 Cedar Ave,Wichita,KS,35865,31.032306,-112.559384,ON_NET,0,Denver,2025-09-25
137,884 Elm St,Knoxville,TN,93409,32.757904,-113.563313,NEAR_NET,188,Nashville,2024-12-05
138,6637 Elm St,Raleigh,NC,35704,41.583754,-102.744483,ON_NET,0,Wichita,2023-02-12
139,2573 Oak St,Augusta,GA,57082,27.461134,-103.705883,NEAR_NET,133,Baltimore,2025-04-15
140,9223 Main St,Kansas City,MO,97542,41.764085,-101.765965,NEAR_NET,6,Nashville,2024-04-11
141,5027 Oak St,Philadelphia,PA,50397,36.652493,-106.386098,NEAR_NET,145,Pittsburgh,2024-01-12
142,7191 2nd Ave,Memphis,TN,13063,25.070162,-114.792064,NEAR_NET,44,Richmond,2023-08-29
143,7518 2nd Ave,Memphis,TN,72025,33.006847,-101.00681,NEAR_NET,124,Charlotte,2024-03-16
144,7251 Broadway,Greenville,SC,76867,38.141916,-100.609774,NEAR_NET,211,Colorado Springs,2023-03-26
145,8390 1st Ave,Charleston,SC,17112,40.041178,-113.423012,ON_NET,0,Pittsburgh,2025-08-31
146,1097 Elm St,Charlotte,NC,24363,28.874146,-114.725921,NEAR_NET,10,Richmond,2023-10-22
147,1083 Market St,Raleigh,NC,90012,40.123595,-102.381512,NEAR_NET,177,Nashville,2023-10-09
148,4174 Broadway,Nashville,TN,72928,29.166467,-103.943015,ON_NET,0,Greenville,2023-09-01
149,613 Pine St,Columbia,SC,33867,33.069309,-109.548577,ON_NET,0,Kansas City,2024-11-26
150,2774 Maple Ave,Columbia,SC,25083,40.365315,-100.728574,ON_NET,0,Charlotte,2025-09-16
151,8553 Elm St,Memphis,TN,23711,30.040632,-108.035519,ON_NET,0,Raleigh,2025-01-25
152,6166 Market St,Columbia,SC,85675,27.923909,-104.962433,ON_NET,0,Boulder,2024-03-28
153,801 Maple Ave,Kansas City,MO,77647,30.07305,-109.588568,NEAR_NET,140,Nashville,2025-08-08
154,39 Main St,Charleston,SC,39050,27.987295,-109.240781,ON_NET,0,Raleigh,2024-03-03
155,792 2nd Ave,Harrisburg,PA,74014,29.545193,-109.796626,ON_NET,0,Denver,2023-02-25
156,5825 Maple Ave,Lone Tree,CO,23941,35.461775,-108.011697,ON_NET,0,Raleigh,2024-08-20
157,2200 Pine St,Arlington,VA,58003,37.478591,-107.123527,NEAR_NET,127,Colorado Springs,2023-01-15
158,2456 Cedar Ave,Columbia,MO,22557,26.273373,-102.170374,ON_NET,0,Pittsburgh,2025-03-11
159,4339 Main St,Norfolk,VA,17357,37.898947,-108.434968,NEAR_NET,168,Charlotte,2024-08-31
160,9871 Broadway,Rockville,MD,74599,29.96994,-113.552552,ON_NET,0,Denver,2023-03-05
161,6661 2nd Ave,Pittsburgh,PA,41151,28.184332,-113.676129,NEAR_NET,5,Boulder,2023-01-13
162,3241 2nd Ave,Silver Spring,MD,64156,28.990365,-109.121245,ON_NET,0,Greenville,2024-10-25
163,2871 Broadway,Augusta,GA,50551,26.275344,-109.389457,ON_NET,0,Baltimore,2025-03-12
164,8831 Main St,Memphis,TN,59172,41.88865,-111.177812,ON_NET,0,Richmond,2023-03-24
165,3711 1st Ave,Nashville,TN,44265,29.645934,-100.582263,NEAR_NET,138,Charlotte,2025-07-01
166,870 Maple Ave,Arlington,VA,93344,36.075755,-106.540791,ON_NET,0,Greenville,2025-09-22
167,3565 1st Ave,Norfolk,VA,76509,25.304554,-103.90553,NEAR_NET,18,Wichita,2025-05-11
168,5365 Pine St,Kansas City,MO,60948,31.571075,-103.587516,NEAR_NET,162,Pittsburgh,2025-08-01
169,7745 Broadway,Harrisburg,PA,10836,42.150455,-106.55821,ON_NET,0,Baltimore,2023-08-28
170,3482 Oak St,Rockville,MD,91608,36.706646,-108.478069,ON_NET,0,Colorado Springs,2023-05-29
171,1843 1st Ave,Denver,CO,91522,43.578977,-105.172955,NEAR_NET,105,Colorado Springs,2024-12-18
172,692 2nd Ave,Denver,CO,94350,37.677563,-110.455116,ON_NET,0,Baltimore,2023-02-17
173,3275 Broadway,Topeka,KS,97053,26.318968,-113.016884,ON_NET,0,Baltimore,2025-08-24
174,4049 Pine St,Atlanta,GA,36628,27.239394,-100.516402,NEAR_NET,59,Pittsburgh,2023-03-31
175,1646 2nd Ave,Norfolk,VA,22826,40.839346,-109.694803,ON_NET,0,Kansas City,2023-11-23
176,4288 Main St,Columbia,SC,55993,30.134045,-104.238898,NEAR_NET,5,Baltimore,2025-02-17
177,9873 Broadway,Columbia,SC,72401,42.027547,-109.274138,NEAR_NET,160,Denver,2025-03-18
178,7160 Broadway,Atlanta,GA,22884,31.935633,-110.569892,ON_NET,0,Greenville,2024-08-02
179,1499 Elm St,Columbia,MO,47632,28.407425,-100.019486,ON_NET,0,Wichita,2023-10-23
180,5708 Cedar Ave,Denver,CO,22542,34.829682,-111.951578,NEAR_NET,13,Colorado Springs,2025-09-17
181,5698 Broadway,Memphis,TN,44154,36.560148,-102.38343,NEAR_NET,19,Wichita,2025-08-18
182,2726 1st Ave,St. Louis,MO,93431,40.336191,-107.354376,ON_NET,0,Baltimore,2024-07-28
183,5836 1st Ave,Topeka,KS,62595,43.570092,-113.377626,NEAR_NET,17,Baltimore,2023-03-30
184,422 Market St,Augusta,GA,37016,31.062821,-106.420913,ON_NET,0,Greenville,2024-05-28
185,3836 Cedar Ave,Greensboro,NC,26630,35.630892,-111.317135,ON_NET,0,Nashville,2024-10-23
186,9538 Market St,Colorado Springs,CO,78384,28.106535,-112.646591,NEAR_NET,169,Pittsburgh,2024-07-21
187,7598 Cedar Ave,Greenville,SC,43713,36.583395,-101.890856,ON_NET,0,Richmond,2024-10-20
188,3148 Maple Ave,Columbia,MO,49519,40.0947,-112.397861,ON_NET,0,Nashville,2023-06-08
189,5360 Elm St,Raleigh,NC,78443,31.972642,-103.543196,ON_NET,0,Wichita,2023-09-22
190,1675 Pine St,Overland Park,KS,60362,28.019202,-102.224787,NEAR_NET,128,Kansas City,2025-01-20
191,4496 Pine St,Norfolk,VA,24323,37.759617,-101.603046,ON_NET,0,Wichita,2025-06-25
192,565 Main St,Savannah,GA,62300,42.086553,-106.547921,NEAR_NET,65,Wichita,2024-05-27
193,372 2nd Ave,Norfolk,VA,43713,37.074176,-106.070701,ON_NET,0,Baltimore,2023-09-06
194,9414 Elm St,Augusta,GA,94829,33.423096,-103.428469,ON_NET,0,Baltimore,2024-10-30
195,2983 1st Ave,Baltimore,MD,69493,33.650577,-103.897121,NEAR_NET,179,Baltimore,2023-04-11
196,6565 2nd Ave,Atlanta,GA,42775,41.988829,-107.241154,ON_NET,0,Denver,2024-09-28
197,3009 Market St,Augusta,GA,11393,32.774169,-107.347602,ON_NET,0,Boulder,2023-02-09
198,3579 2nd Ave,Arlington,VA,36189,35.384399,-101.516305,ON_NET,0,Nashville,2024-04-12
199,7804 Broadway,Pittsburgh,PA,12111,37.785226,-112.43478,ON_NET,0,Greenville,2023-12-18
200,7496 Pine St,Augusta,GA,99700,28.676053,-107.706881,ON_NET,0,Boulder,2025-01-16
201,937 Maple Ave,Rockville,MD,45960,32.636734,-100.922557,ON_NET,0,Boulder,2024-03-04
202,5779 Elm St,Augusta,GA,44754,27.185169,-104.552431,ON_NET,0,Raleigh,2025-08-20
203,6431 Cedar Ave,Pittsburgh,PA,37788,28.290667,-113.941284,NEAR_NET,50,Boulder,2025-04-09
204,9218 Pine St,St. Louis,MO,29171,32.062634,-109.581947,ON_NET,0,Raleigh,2024-04-24
205,2060 Cedar Ave,Arlington,VA,56497,40.671869,-103.456809,ON_NET,0,Baltimore,2024-01-21
206,3055 Cedar Ave,Norfolk,VA,10353,41.108731,-111.983694,ON_NET,0,Charlotte,2023-09-08
207,7866 Cedar Ave,Norfolk,VA,66163,37.467279,-101.281323,ON_NET,0,Charlotte,2023-06-06
208,944 1st Ave,Norfolk,VA,84001,43.116119,-111.760576,NEAR_NET,97,Colorado Springs,2024-06-27
209,9552 Main St,Charleston,SC,96154,25.229581,-114.276529,ON_NET,0,Pittsburgh,2023-10-28
210,1673 Elm St,Arlington,VA,28708,42.083477,-102.784952,NEAR_NET,143,Richmond,2023-12-21
211,6604 Broadway,Raleigh,NC,32008,37.190268,-110.320391,ON_NET,0,Boulder,2024-11-15
212,4876 Pine St,Philadelphia,PA,74810,38.855854,-107.961932,ON_NET,0,Baltimore,2025-05-09
213,1926 Broadway,Memphis,TN,25521,30.289887,-103.512636,ON_NET,0,Colorado Springs,2024-04-29
214,967 Cedar Ave,Memphis,TN,71222,43.109267,-110.506324,NEAR_NET,123,Wichita,2024-05-25
215,2637 Market St,Charlotte,NC,71336,38.917711,-107.464097,ON_NET,0,Kansas City,2025-05-10
216,6986 Oak St,Knoxville,TN,98597,26.507927,-109.555614,NEAR_NET,170,Pittsburgh,2024-10-24
217,9998 Main St,Denver,CO,99468,39.730826,-114.984791,NEAR_NET,123,Boulder,2024-06-06
218,2377 Main St,Knoxville,TN,37965,39.363682,-109.379168,ON_NET,0,Charlotte,2023-04-07
219,7784 Broadway,Columbia,SC,82630,40.411488,-103.160879,ON_NET,0,Raleigh,2023-12-17
220,9087 Main St,Savannah,GA,47899,30.857657,-112.416011,ON_NET,0,Raleigh,2023-12-08
221,8307 Market St,Harrisburg,PA,36677,38.091183,-111.879267,ON_NET,0,Charlotte,2023-07-16
222,4912 2nd Ave,Charleston,SC,86867,44.454994,-101.313643,NEAR_NET,139,Denver,2024-02-13
223,8945 Elm St,Harrisburg,PA,16514,32.969642,-101.627508,ON_NET,0,Denver,2023-07-14
224,995 Broadway,Memphis,TN,81257,37.234802,-109.250487,NEAR_NET,177,Pittsburgh,2024-11-20
225,1369 Pine St,Silver Spring,MD,15173,38.340044,-106.86819,ON_NET,0,Colorado Springs,2023-04-14
226,6917 1st Ave,Charlotte,NC,95946,25.268529,-113.078831,ON_NET,0,Colorado Springs,2025-03-16
227,4237 Maple Ave,Arlington,VA,34219,33.435694,-104.777156,ON_NET,0,Raleigh,2024-08-02
228,8165 Elm St,Baltimore,MD,78439,25.787589,-101.782704,ON_NET,0,Raleigh,2024-08-12
229,1111 Main St,Savannah,GA,99124,32.742857,-108.879562,NEAR_NET,64,Pittsburgh,2025-10-01
230,6767 Broadway,Greensboro,NC,23375,26.658495,-107.082888,ON_NET,0,Colorado Springs,2024-10-03
231,88 Main St,Fort Collins,CO,99621,38.387325,-114.799723,NEAR_NET,66,Boulder,2023-08-12
232,7748 Main St,Overland Park,KS,46103,39.387021,-103.634056,NEAR_NET,101,Baltimore,2025-02-01
233,6004 2nd Ave,Charlotte,NC,21048,30.862866,-108.362334,ON_NET,0,Richmond,2024-04-16
234,533 Main St,Richmond,VA,17936,25.294591,-109.760462,NEAR_NET,71,Nashville,2023-03-23
235,5129 Elm St,Savannah,GA,31757,44.153984,-112.523728,NEAR_NET,40,Nashville,2023-03-03
236,9430 Cedar Ave,Columbia,SC,71577,38.537589,-102.173598,ON_NET,0,Boulder,2024-01-07
237,7824 Oak St,Greensboro,NC,69343,43.898439,-111.769363,NEAR_NET,69,Nashville,2023-12-08
238,1003 Elm St,Norfolk,VA,95320,39.065314,-112.41113,NEAR_NET,118,Charlotte,2025-06-09
239,263 2nd Ave,Silver Spring,MD,88792,41.652499,-108.770024,NEAR_NET,109,Wichita,2024-01-21
240,6173 Elm St,Augusta,GA,40717,41.149629,-104.24964,ON_NET,0,Denver,2023-11-26
241,6932 2nd Ave,Norfolk,VA,86892,43.411925,-111.449861,NEAR_NET,28,Denver,2023-10-23
242,4496 Broadway,Raleigh,NC,99736,40.540903,-107.499639,ON_NET,0,Greenville,2023-03-29
243,7952 Oak St,Philadelphia,PA,36270,40.753803,-110.832859,ON_NET,0,Wichita,2023-11-13
244,6489 Cedar Ave,Baltimore,MD,37077,43.51998,-108.795825,NEAR_NET,69,Denver,2025-03-21
245,8866 1st Ave,Savannah,GA,80274,41.131499,-111.582494,NEAR_NET,118,Wichita,2024-02-12
246,4262 Broadway,Silver Spring,MD,52073,34.531725,-108.839929,ON_NET,0,Wichita,2023-08-06
247,2970 Maple Ave,Kansas City,MO,57556,36.55732,-105.383358,NEAR_NET,25,Greenville,2025-05-27
248,740 Cedar Ave,Raleigh,NC,59026,42.327436,-105.575025,NEAR_NET,99,Richmond,2025-03-17
249,5183 Elm St,Overland Park,KS,13979,31.898433,-107.791852,NEAR_NET,49,Denver,2023-04-07
250,9274 Cedar Ave,Boulder,CO,86901,36.343679,-103.923954,ON_NET,0,Kansas City,2024-03-12
251,9727 Elm St,Lawrence,KS,27157,30.079911,-100.568058,ON_NET,0,Wichita,2023-07-05
252,460 Main St,Atlanta,GA,14562,36.147605,-113.060004,ON_NET,0,Richmond,2024-05-13
253,1974 1st Ave,Lawrence,KS,43710,31.374212,-103.498118,ON_NET,0,Boulder,2025-09-06
254,3002 Cedar Ave,Harrisburg,PA,30935,32.418222,-103.526929,ON_NET,0,Baltimore,2023-08-16
255,4202 Market St,Charlotte,NC,17769,43.055091,-113.568584,ON_NET,0,Denver,2023-09-22
256,7930 Main St,Philadelphia,PA,23245,27.895951,-111.324261,ON_NET,0,Wichita,2024-11-24
257,9700 Cedar Ave,Arlington,VA,95526,27.108399,-104.858776,ON_NET,0,Kansas City,2024-02-04
258,7895 Oak St,Topeka,KS,32095,33.827697,-112.113311,ON_NET,0,Pittsburgh,2025-07-02
259,3206 Main St,Fort Collins,CO,30572,43.553579,-103.308285,ON_NET,0,Nashville,2025-06-06
260,2299 Cedar Ave,Charleston,SC,22712,43.518798,-105.776187,NEAR_NET,53,Denver,2024-10-05
261,5576 Market St,Lawrence,KS,40655,34.550766,-109.422747,ON_NET,0,Colorado Springs,2023-12-06
262,939 2nd Ave,Columbia,MO,69162,36.067482,-102.170664,ON_NET,0,Colorado Springs,2023-09-30
263,4052 2nd Ave,Savannah,GA,13331,30.422143,-112.59345,ON_NET,0,Charlotte,2025-04-03
264,8054 1st Ave,Durham,NC,51689,34.123693,-107.236545,ON_NET,0,Colorado Springs,2025-09-29
265,3469 Broadway,Pittsburgh,PA,72581,41.705646,-101.787837,ON_NET,0,Wichita,2025-09-20
266,4294 Pine St,Columbia,SC,41214,26.951297,-104.341429,NEAR_NET,176,Colorado Springs,2023-02-28
267,272 Cedar Ave,Richmond,VA,76557,31.818119,-102.102151,NEAR_NET,42,Denver,2025-03-19
268,3054 Market St,Harrisburg,PA,67049,25.810958,-106.134108,ON_NET,0,Kansas City,2024-08-08
269,2961 Broadway,Raleigh,NC,40201,39.232366,-102.950673,NEAR_NET,101,Boulder,2025-04-28
270,4497 2nd Ave,Lawrence,KS,37005,27.740817,-110.048493,NEAR_NET,240,Pittsburgh,2025-04-11
271,5056 Pine St,Columbia,MO,11315,26.313906,-110.990729,ON_NET,0,Raleigh,2025-05-11
272,5705 Market St,Lone Tree,CO,46930,41.838158,-112.96758,NEAR_NET,119,Richmond,2023-04-03
273,7818 2nd Ave,Fort Collins,CO,97226,30.325191,-102.790783,ON_NET,0,Charlotte,2023-02-07
274,9429 Elm St,Durham,NC,10608,32.123138,-113.981784,ON_NET,0,Greenville,2023-03-15
275,4019 Market St,Topeka,KS,59989,36.526236,-113.470637,ON_NET,0,Kansas City,2025-06-12
276,7324 Broadway,Lawrence,KS,13360,35.61021,-108.059972,NEAR_NET,89,Denver,2023-09-07
277,2998 2nd Ave,Overland Park,KS,23457,31.238258,-108.330404,NEAR_NET,31,Denver,2023-01-20
278,4293 Main St,Overland Park,KS,88564,37.736744,-106.959102,ON_NET,0,Wichita,2024-12-20
279,5755 1st Ave,Nashville,TN,33458,25.903412,-101.845737,NEAR_NET,86,Richmond,2024-08-22
280,1812 1st Ave,Harrisburg,PA,25930,33.11301,-102.054319,ON_NET,0,Nashville,2023-08-21
281,9395 Cedar Ave,Kansas City,MO,61984,28.286461,-112.390208,NEAR_NET,76,Pittsburgh,2024-02-03
282,9886 Broadway,Augusta,GA,14745,32.912669,-114.119379,ON_NET,0,Charlotte,2023-12-13
283,5499 Oak St,Atlanta,GA,83980,41.087569,-113.691562,ON_NET,0,Raleigh,2025-05-17
284,5332 Broadway,Pittsburgh,PA,29218,44.15722,-114.014995,NEAR_NET,130,Wichita,2025-06-10
285,199 Market St,Augusta,GA,24290,35.615966,-101.038963,NEAR_NET,96,Raleigh,2023-07-25
286,351 Pine St,Philadelphia,PA,28272,33.414559,-105.955775,ON_NET,0,Richmond,2024-10-10
287,573 Elm St,Denver,CO,44835,43.358587,-109.352061,NEAR_NET,16,Pittsburgh,2024-07-09
288,1656 Maple Ave,Lone Tree,CO,25951,35.4061,-106.505369,ON_NET,0,Denver,2023-10-22
289,5704 2nd Ave,Topeka,KS,25778,26.206786,-114.386228,ON_NET,0,Greenville,2025-07-12
290,7651 Elm St,Richmond,VA,79970,43.638521,-106.599657,NEAR_NET,45,Greenville,2023-05-15
291,9469 Maple Ave,Norfolk,VA,45928,29.868014,-101.317708,ON_NET,0,Greenville,2023-10-22
292,9351 Pine St,Memphis,TN,95243,32.733029,-108.228612,NEAR_NET,30,Charlotte,2024-04-16
293,7839 Cedar Ave,Harrisburg,PA,50698,25.619247,-105.004996,ON_NET,0,Wichita,2024-06-08
294,9605 Oak St,Harrisburg,PA,11556,43.483839,-102.434417,ON_NET,0,Wichita,2023-11-28
295,8061 Maple Ave,Harrisburg,PA,47331,42.567452,-103.242115,ON_NET,0,Denver,2025-03-01
296,9039 1st Ave,Boulder,CO,89419,42.425459,-106.599792,NEAR_NET,84,Denver,2024-06-13
297,5811 1st Ave,Savannah,GA,78279,29.503341,-114.389572,ON_NET,0,Baltimore,2025-08-14
298,5531 Market St,Greensboro,NC,28392,38.506879,-109.244449,ON_NET,0,Kansas City,2025-04-20
299,7796 Maple Ave,Pittsburgh,PA,92662,39.17104,-113.72057,ON_NET,0,Colorado Springs,2024-02-27
300,6734 Broadway,Wichita,KS,86786,27.348955,-105.962401,ON_NET,0,Nashville,2023-06-03
301,9960 1st Ave,Savannah,GA,59749,42.033706,-110.389651,ON_NET,0,Kansas City,2025-01-10
302,5792 Oak St,Columbia,SC,78959,36.107033,-105.767514,ON_NET,0,Charlotte,2023-01-07
303,7285 Maple Ave,Knoxville,TN,34144,35.737485,-112.04429,NEAR_NET,113,Raleigh,2024-08-12
304,3810 1st Ave,Augusta,GA,53264,31.477338,-112.650849,NEAR_NET,94,Wichita,2025-09-08
305,6996 Main St,Greenville,SC,13352,25.948842,-108.474021,ON_NET,0,Richmond,2023-11-04
306,8832 Elm St,Harrisburg,PA,67299,35.348958,-107.758984,ON_NET,0,Pittsburgh,2024-03-16
307,5870 Main St,Savannah,GA,87951,38.524528,-106.795975,ON_NET,0,Denver,2024-11-23
308,1631 Oak St,Overland Park,KS,59075,35.018176,-109.728045,ON_NET,0,Nashville,2023-06-07
309,7984 Oak St,St. Louis,MO,67693,40.346561,-113.487297,ON_NET,0,Nashville,2023-12-18
310,1521 2nd Ave,Philadelphia,PA,57542,31.361555,-114.676401,ON_NET,0,Kansas City,2024-06-08
311,4841 Market St,Charlotte,NC,76699,42.762872,-106.313307,NEAR_NET,91,Colorado Springs,2024-06-20
312,3414 Broadway,Arlington,VA,34655,33.245192,-100.902549,NEAR_NET,199,Nashville,2024-09-09
313,9346 Main St,Topeka,KS,63925,25.214675,-100.041685,ON_NET,0,Baltimore,2024-12-08
314,4998 Oak St,Pittsburgh,PA,22910,36.724009,-110.021596,ON_NET,0,Wichita,2023-06-29
315,9300 Maple Ave,Memphis,TN,94778,42.911294,-107.715039,ON_NET,0,Colorado Springs,2024-08-11
316,9868 1st Ave,St. Louis,MO,29051,28.135417,-111.392438,ON_NET,0,Boulder,2023-01-30
317,2804 Broadway,Wichita,KS,74281,41.462817,-109.195064,NEAR_NET,55,Denver,2024-10-27
318,5299 2nd Ave,Lone Tree,CO,41229,32.076896,-102.541219,NEAR_NET,95,Kansas City,2024-10-05
319,5726 Pine St,Wichita,KS,68961,37.480057,-100.293225,ON_NET,0,Wichita,2025-06-30
320,729 Cedar Ave,Augusta,GA,17154,37.403561,-103.739942,ON_NET,0,Denver,2023-06-13
321,5167 Main St,Baltimore,MD,69695,31.073531,-109.038288,ON_NET,0,Richmond,2025-09-30
322,6396 Elm St,Overland Park,KS,39019,33.269899,-105.978969,ON_NET,0,Baltimore,2024-05-11
323,1443 2nd Ave,Boulder,CO,32272,32.167921,-102.798292,ON_NET,0,Kansas City,2024-02-10
324,1892 Market St,Harrisburg,PA,79959,42.429698,-105.038205,ON_NET,0,Pittsburgh,2023-03-09
325,5764 Broadway,Lawrence,KS,42104,32.747272,-107.005208,NEAR_NET,104,Charlotte,2023-08-31
326,4583 Main St,Atlanta,GA,54750,41.09742,-103.626996,NEAR_NET,70,Colorado Springs,2023-04-05
327,8937 2nd Ave,St. Louis,MO,82741,33.866174,-112.544728,ON_NET,0,Wichita,2023-06-13
328,3556 Oak St,Columbia,SC,59400,37.586875,-108.71114,ON_NET,0,Kansas City,2025-08-31
329,3359 Pine St,Memphis,TN,69335,38.506049,-114.131308,ON_NET,0,Kansas City,2024-09-02
330,6039 Broadway,Memphis,TN,42276,33.083013,-107.652909,ON_NET,0,Colorado Springs,2025-06-12
331,8899 Maple Ave,Wichita,KS,60438,25.574336,-110.773412,NEAR_NET,113,Colorado Springs,2023-11-15
332,1419 2nd Ave,Fort Collins,CO,40351,31.420743,-109.941232,NEAR_NET,60,Boulder,2023-03-11
333,8207 Maple Ave,Harrisburg,PA,35273,26.31822,-104.669088,NEAR_NET,52,Wichita,2023-10-23
334,4636 Market St,Greensboro,NC,62871,41.887265,-106.966966,ON_NET,0,Pittsburgh,2025-06-22
335,2900 Main St,Durham,NC,58048,38.592493,-109.954158,ON_NET,0,Charlotte,2025-07-07
336,7588 Pine St,Atlanta,GA,62497,32.04227,-109.432408,ON_NET,0,Colorado Springs,2023-10-26
337,9986 Pine St,Topeka,KS,98790,25.809037,-100.599978,ON_NET,0,Colorado Springs,2024-03-17
338,2569 Oak St,St. Louis,MO,15142,36.046886,-109.441834,ON_NET,0,Colorado Springs,2024-08-01
339,8167 Broadway,Columbia,MO,43385,43.513857,-110.052006,NEAR_NET,179,Nashville,2023-12-24
340,4701 Main St,Denver,CO,86693,37.147744,-100.710202,ON_NET,0,Wichita,2024-11-28
341,5229 Pine St,Wichita,KS,55306,39.990499,-101.292053,ON_NET,0,Baltimore,2025-01-31
342,3627 Maple Ave,Augusta,GA,79117,26.798672,-114.195422,NEAR_NET,103,Raleigh,2024-03-29
343,8252 Cedar Ave,Charleston,SC,76670,26.086012,-110.473828,ON_NET,0,Raleigh,2024-11-20
344,8030 Pine St,Pittsburgh,PA,15726,44.045981,-112.377634,ON_NET,0,Greenville,2023-09-25
345,3876 Broadway,Raleigh,NC,44115,29.993801,-100.890747,ON_NET,0,Charlotte,2023-12-22
346,3309 Maple Ave,Atlanta,GA,27981,27.731065,-110.604592,ON_NET,0,Pittsburgh,2024-05-09
347,3970 Main St,Columbia,MO,77552,38.830502,-101.996532,NEAR_NET,70,Pittsburgh,2023-12-26
348,2334 Elm St,Richmond,VA,83828,29.81542,-109.441025,NEAR_NET,16,Boulder,2024-07-15
349,2546 Elm St,Atlanta,GA,70447,41.789719,-106.091483,ON_NET,0,Wichita,2023-04-28
350,5916 Cedar Ave,Richmond,VA,37057,25.867935,-113.43718,NEAR_NET,81,Kansas City,2023-07-21
351,7350 1st Ave,Topeka,KS,31144,31.489414,-107.029892,ON_NET,0,Charlotte,2023-10-24
352,756 Main St,Charlotte,NC,71408,44.842559,-111.256684,ON_NET,0,Boulder,2025-02-04
353,9244 Maple Ave,Charleston,SC,24260,37.902155,-114.350994,ON_NET,0,Richmond,2023-07-14
354,146 Market St,Harrisburg,PA,21923,37.890135,-109.416164,ON_NET,0,Baltimore,2024-10-30
355,4040 1st Ave,Arlington,VA,28173,39.948965,-100.379396,ON_NET,0,Raleigh,2025-05-09
356,6037 2nd Ave,Durham,NC,93637,35.508727,-113.43404,NEAR_NET,43,Pittsburgh,2023-06-22
357,5362 Oak St,Topeka,KS,34188,37.946101,-105.343702,NEAR_NET,141,Wichita,2024-01-13
358,4164 Pine St,Durham,NC,17565,25.82506,-108.503042,NEAR_NET,108,Pittsburgh,2025-08-01
359,3556 Cedar Ave,Atlanta,GA,65440,34.990602,-102.362237,ON_NET,0,Kansas City,2024-09-09
360,1324 2nd Ave,Silver Spring,MD,39818,28.272762,-106.647826,ON_NET,0,Raleigh,2023-04-02
361,7864 Pine St,Fort Collins,CO,38609,39.459006,-100.042035,ON_NET,0,Nashville,2025-05-25
362,2355 Maple Ave,Harrisburg,PA,19436,38.232502,-107.719329,ON_NET,0,Raleigh,2025-06-30
363,7197 Main St,Greenville,SC,97307,44.12016,-102.644229,ON_NET,0,Baltimore,2023-06-18
364,78 Cedar Ave,Savannah,GA,83842,38.50523,-108.512727,NEAR_NET,102,Richmond,2023-03-29
365,8476 Cedar Ave,Harrisburg,PA,66147,44.425916,-113.630599,ON_NET,0,Colorado Springs,2025-09-24
366,1344 Main St,Augusta,GA,98663,31.630836,-109.876542,NEAR_NET,129,Nashville,2024-08-07
367,7886 2nd Ave,Savannah,GA,49231,42.305252,-107.956061,NEAR_NET,246,Pittsburgh,2023-01-29
368,7339 1st Ave,Kansas City,MO,29256,38.209643,-105.580148,ON_NET,0,Nashville,2025-08-23
369,8693 Pine St,Savannah,GA,84031,33.827358,-103.916218,ON_NET,0,Wichita,2023-07-04
370,1849 Pine St,Columbia,MO,43225,37.993483,-102.813101,ON_NET,0,Pittsburgh,2023-09-15
371,9087 Cedar Ave,Nashville,TN,39694,35.824533,-110.450858,ON_NET,0,Baltimore,2024-06-09
372,1324 Oak St,Silver Spring,MD,99062,26.469462,-106.592911,ON_NET,0,Greenville,2024-07-17
373,1887 Broadway,Philadelphia,PA,23381,34.19975,-110.289418,ON_NET,0,Greenville,2023-06-25
374,7794 1st Ave,Columbia,MO,27930,32.467284,-109.281774,NEAR_NET,42,Raleigh,2023-08-31
375,693 Main St,Colorado Springs,CO,87897,44.112579,-106.895585,ON_NET,0,Boulder,2024-12-25
376,1446 Elm St,Greensboro,NC,36424,36.259185,-113.762573,NEAR_NET,159,Charlotte,2023-06-22
377,5603 Main St,Charleston,SC,43504,27.454446,-105.595217,NEAR_NET,178,Baltimore,2024-06-21
378,8021 Main St,Charleston,SC,89140,32.06885,-105.336104,ON_NET,0,Charlotte,2025-04-02
379,569 Pine St,Baltimore,MD,43371,32.087084,-110.408917,ON_NET,0,Denver,2025-05-08
380,1870 Main St,Rockville,MD,73969,27.208344,-112.010391,NEAR_NET,50,Colorado Springs,2023-06-03
381,6249 2nd Ave,Harrisburg,PA,87111,42.508066,-108.076505,NEAR_NET,8,Baltimore,2025-02-18
382,236 Main St,Norfolk,VA,54874,44.889697,-107.307555,ON_NET,0,Richmond,2025-06-13
383,1232 2nd Ave,Denver,CO,91319,41.36596,-110.192684,ON_NET,0,Raleigh,2025-05-13
384,7359 Oak St,Nashville,TN,40042,42.460409,-109.162684,ON_NET,0,Boulder,2024-01-05
385,3554 Maple Ave,Charleston,SC,27160,36.784466,-100.65484,ON_NET,0,Colorado Springs,2025-04-18
386,7673 Market St,Charleston,SC,85634,34.368107,-114.061186,ON_NET,0,Charlotte,2023-01-07
387,7930 Market St,Charleston,SC,39703,25.410244,-106.891116,ON_NET,0,Nashville,2023-02-16
388,4477 Oak St,Raleigh,NC,45826,26.269659,-114.870393,ON_NET,0,Charlotte,2024-08-05
389,9585 2nd Ave,Silver Spring,MD,14471,43.301099,-113.539594,ON_NET,0,Boulder,2025-06-12
390,9377 1st Ave,St. Louis,MO,57567,40.838046,-111.895631,ON_NET,0,Wichita,2025-06-12
391,4990 Market St,Charlotte,NC,57533,35.178141,-109.528143,ON_NET,0,Charlotte,2025-06-12
392,6661 Market St,Philadelphia,PA,17923,39.084501,-110.076297,NEAR_NET,33,Richmond,2024-05-30
393,3857 Market St,Greenville,SC,29766,27.712401,-100.108487,ON_NET,0,Pittsburgh,2024-04-09
394,6499 Elm St,Savannah,GA,49637,43.589598,-108.801893,ON_NET,0,Colorado Springs,2023-11-05
395,9379 Broadway,Norfolk,VA,96358,43.748592,-105.107008,ON_NET,0,Wichita,2024-08-20
396,4994 Elm St,Overland Park,KS,56332,44.749245,-105.35465,ON_NET,0,Baltimore,2024-03-14
397,5240 2nd Ave,Lawrence,KS,46159,42.95463,-108.197273,NEAR_NET,78,Colorado Springs,2024-10-03
398,338 Pine St,Richmond,VA,16251,32.991472,-103.005216,ON_NET,0,Nashville,2023-10-17
399,1641 Pine St,Philadelphia,PA,41684,39.677787,-114.447102,NEAR_NET,32,Nashville,2023-02-19
400,9438 Market St,Wichita,KS,27913,25.101002,-104.05949,NEAR_NET,81,Pittsburgh,2025-06-15
401,461 Pine St,Colorado Springs,CO,52145,31.535003,-111.239866,NEAR_NET,126,Pittsburgh,2024-05-12
402,5544 2nd Ave,Augusta,GA,17529,42.266098,-111.943931,ON_NET,0,Boulder,2024-10-03
403,8109 Elm St,Rockville,MD,62370,30.140347,-106.950672,ON_NET,0,Denver,2023-01-27
404,5145 Main St,Charleston,SC,64412,37.279352,-110.862023,ON_NET,0,Charlotte,2023-06-10
405,2569 Pine St,Wichita,KS,28698,35.589643,-112.609103,ON_NET,0,Charlotte,2025-04-13
406,5647 Broadway,Columbia,SC,99148,36.76978,-108.324922,NEAR_NET,121,Pittsburgh,2025-10-01
407,5430 Pine St,Silver Spring,MD,91091,30.156618,-110.671425,NEAR_NET,90,Denver,2025-03-05
408,9012 Cedar Ave,Arlington,VA,83308,30.565256,-107.849835,ON_NET,0,Kansas City,2023-05-16
409,9154 Cedar Ave,Richmond,VA,23079,38.107222,-111.612458,ON_NET,0,Charlotte,2023-06-04
410,1483 Main St,St. Louis,MO,91871,27.682862,-100.902494,ON_NET,0,Greenville,2023-07-29
411,4255 Elm St,Pittsburgh,PA,57921,39.751932,-113.542862,NEAR_NET,168,Baltimore,2025-05-26
412,5757 Pine St,Charlotte,NC,67875,44.646623,-107.484061,NEAR_NET,93,Pittsburgh,2025-07-23
413,7548 Pine St,Columbia,SC,52445,40.796351,-100.397085,NEAR_NET,56,Pittsburgh,2025-01-20
414,6593 Market St,Denver,CO,17862,29.562335,-105.639879,ON_NET,0,Raleigh,2025-08-25
415,4137 Main St,Kansas City,MO,44382,39.185285,-103.627438,ON_NET,0,Charlotte,2023-07-28
416,4575 Maple Ave,Columbia,SC,75352,29.332186,-108.542849,ON_NET,0,Colorado Springs,2024-05-03
417,4926 Maple Ave,Richmond,VA,21591,31.630564,-107.283271,NEAR_NET,33,Wichita,2023-06-15
418,9800 Cedar Ave,Charleston,SC,37796,36.584485,-113.242871,ON_NET,0,Wichita,2025-05-21
419,7203 2nd Ave,Greenville,SC,66991,42.279338,-114.922347,NEAR_NET,106,Kansas City,2024-12-02
420,2499 Main St,Denver,CO,27482,43.232142,-102.262038,NEAR_NET,105,Baltimore,2023-12-27
421,7620 Oak St,Overland Park,KS,21826,33.284031,-109.632426,NEAR_NET,49,Pittsburgh,2025-01-03
422,549 Elm St,Savannah,GA,40750,29.027559,-109.410185,NEAR_NET,105,Denver,2023-02-08
423,9428 Oak St,Raleigh,NC,23745,39.570087,-100.72478,ON_NET,0,Charlotte,2023-03-08
424,7994 2nd Ave,Wichita,KS,78867,33.569496,-102.684718,NEAR_NET,85,Pittsburgh,2024-07-07
425,8692 Market St,Charlotte,NC,75046,44.144789,-101.159913,ON_NET,0,Wichita,2025-05-23
426,1196 Maple Ave,Columbia,MO,33228,25.304142,-104.035057,ON_NET,0,Denver,2023-07-21
427,6696 Broadway,Pittsburgh,PA,57528,30.344159,-104.885679,NEAR_NET,142,Denver,2024-10-30
428,4632 Broadway,Memphis,TN,53352,38.805761,-114.735421,ON_NET,0,Baltimore,2025-01-04
429,6923 Market St,Norfolk,VA,80778,33.382983,-114.594045,ON_NET,0,Raleigh,2025-02-18
430,2353 Main St,Savannah,GA,41338,37.156599,-113.894253,NEAR_NET,68,Kansas City,2024-12-11
431,6186 Pine St,Silver Spring,MD,36007,38.268538,-101.302198,ON_NET,0,Nashville,2025-03-13
432,6658 Broadway,Denver,CO,52516,38.697019,-106.636396,ON_NET,0,Pittsburgh,2023-11-20
433,25 Cedar Ave,Memphis,TN,94846,42.069455,-107.651939,NEAR_NET,135,Nashville,2024-07-13
434,6216 Market St,Atlanta,GA,18404,32.870477,-107.893886,ON_NET,0,Nashville,2024-11-06
435,8907 Pine St,Greenville,SC,90283,40.307775,-103.934168,ON_NET,0,Richmond,2025-05-28
436,9668 Cedar Ave,Charleston,SC,84803,29.42448,-102.131344,ON_NET,0,Greenville,2024-01-08
437,8652 2nd Ave,Pittsburgh,PA,57945,29.772844,-102.585283,ON_NET,0,Pittsburgh,2024-04-16
438,5285 Oak St,Charlotte,NC,57416,41.642418,-112.26656,ON_NET,0,Boulder,2024-02-24
439,6156 1st Ave,Durham,NC,57811,32.132932,-112.048196,NEAR_NET,122,Greenville,2023-11-06
440,1451 Maple Ave,Memphis,TN,61845,30.810001,-106.693021,ON_NET,0,Boulder,2024-04-05
441,2869 Broadway,Memphis,TN,29645,25.118391,-101.957837,ON_NET,0,Richmond,2024-06-17
442,6084 Broadway,Columbia,MO,54576,41.031137,-103.792993,NEAR_NET,63,Greenville,2023-07-25
443,4264 Main St,Lone Tree,CO,87409,28.568589,-110.772708,ON_NET,0,Kansas City,2025-07-27
444,3972 Maple Ave,Columbia,SC,67418,26.826574,-109.542144,NEAR_NET,145,Boulder,2023-07-26
445,4768 Elm St,Greensboro,NC,58708,43.410399,-110.761062,ON_NET,0,Raleigh,2024-01-11
446,6693 Oak St,Colorado Springs,CO,94959,37.148791,-103.851874,ON_NET,0,Wichita,2024-01-30
447,3149 Elm St,Baltimore,MD,58805,26.267125,-103.046936,ON_NET,0,Boulder,2023-03-23
448,6453 Broadway,Knoxville,TN,64357,34.931995,-113.5197,NEAR_NET,22,Denver,2023-04-21
449,7588 Cedar Ave,Silver Spring,MD,67163,33.297854,-107.104036,NEAR_NET,116,Boulder,2024-03-26
450,2226 Broadway,Savannah,GA,11246,38.40761,-111.106723,ON_NET,0,Raleigh,2024-07-08
451,9084 Market St,Colorado Springs,CO,60789,40.397565,-101.771788,ON_NET,0,Wichita,2025-05-18
452,1676 Cedar Ave,Wichita,KS,21567,41.963075,-103.234543,ON_NET,0,Richmond,2023-02-26
453,5508 Cedar Ave,Columbia,MO,17179,36.007546,-111.21893,ON_NET,0,Nashville,2023-05-24
454,2394 Market St,Atlanta,GA,53822,28.805008,-114.733448,NEAR_NET,48,Colorado Springs,2024-07-05
455,4308 1st Ave,Arlington,VA,51030,32.674485,-109.959321,ON_NET,0,Kansas City,2024-07-23
456,6894 Main St,Augusta,GA,50219,31.089794,-113.001628,ON_NET,0,Raleigh,2025-05-27
457,5006 Pine St,Harrisburg,PA,27268,26.042144,-108.052734,ON_NET,0,Charlotte,2025-08-12
458,8021 Elm St,Memphis,TN,28518,32.314563,-112.021741,ON_NET,0,Wichita,2024-04-12
459,848 Market St,Philadelphia,PA,11115,35.661579,-106.133929,ON_NET,0,Nashville,2025-04-23
460,4491 Pine St,Greenville,SC,67554,30.830686,-110.658342,NEAR_NET,129,Nashville,2024-09-17
461,7298 Pine St,Knoxville,TN,36635,26.154328,-106.505812,NEAR_NET,79,Pittsburgh,2023-05-08
462,1188 Elm St,Boulder,CO,75162,28.603312,-113.835977,ON_NET,0,Greenville,2025-01-24
463,3627 Maple Ave,Greensboro,NC,37659,35.688963,-102.384327,ON_NET,0,Baltimore,2023-07-31
464,7639 1st Ave,Pittsburgh,PA,36427,40.685052,-114.263063,ON_NET,0,Raleigh,2023-08-18
465,7258 Oak St,Arlington,VA,30294,42.36349,-113.857835,ON_NET,0,Colorado Springs,2023-02-12
466,4820 Pine St,Greensboro,NC,86291,40.944104,-110.604128,NEAR_NET,53,Baltimore,2023-06-07
467,5324 Broadway,Norfolk,VA,38125,28.037956,-111.99058,ON_NET,0,Wichita,2024-02-05
468,6235 2nd Ave,Colorado Springs,CO,93988,30.821207,-109.822433,ON_NET,0,Baltimore,2023-04-06
469,2449 2nd Ave,St. Louis,MO,66342,31.663633,-106.020606,ON_NET,0,Denver,2025-04-28
470,3458 Broadway,Greenville,SC,78987,26.458687,-107.348738,ON_NET,0,Denver,2025-02-07
471,3295 Cedar Ave,Nashville,TN,46700,42.279844,-108.966655,ON_NET,0,Greenville,2025-02-13
472,2298 Cedar Ave,Overland Park,KS,45543,40.355477,-111.476138,ON_NET,0,Wichita,2024-08-15
473,9514 Elm St,Richmond,VA,23194,44.347092,-105.164478,NEAR_NET,67,Colorado Springs,2024-11-03
474,2827 Market St,Richmond,VA,55905,33.992473,-103.710946,ON_NET,0,Baltimore,2024-01-08
475,4896 1st Ave,Charlotte,NC,83292,34.099655,-111.20439,NEAR_NET,138,Boulder,2025-03-17
476,7569 Main St,Greensboro,NC,14420,25.792231,-108.688577,ON_NET,0,Raleigh,2024-10-24
477,9479 Market St,Greensboro,NC,19992,32.494254,-109.94717,ON_NET,0,Colorado Springs,2024-01-04
478,5443 Main St,Charlotte,NC,94510,42.468678,-107.203707,ON_NET,0,Colorado Springs,2023-09-25
479,3921 1st Ave,Wichita,KS,30063,34.922577,-108.039798,ON_NET,0,Boulder,2023-11-29
480,2697 Elm St,Nashville,TN,80184,25.841265,-103.843406,NEAR_NET,115,Wichita,2023-10-18
481,3343 2nd Ave,Augusta,GA,41442,39.531617,-108.021918,NEAR_NET,108,Wichita,2025-06-30
482,1742 Main St,Wichita,KS,74015,40.833626,-110.52113,NEAR_NET,43,Wichita,2024-12-06
483,2816 2nd Ave,Kansas City,MO,44625,44.963152,-106.360042,ON_NET,0,Nashville,2024-06-14
484,9345 1st Ave,Topeka,KS,21052,38.277781,-103.264356,NEAR_NET,24,Wichita,2024-09-01
485,1028 Pine St,Philadelphia,PA,19575,36.983559,-114.744277,ON_NET,0,Denver,2023-08-09
486,2872 Maple Ave,Silver Spring,MD,54836,26.680058,-111.387325,ON_NET,0,Nashville,2025-07-31
487,5211 Oak St,Charlotte,NC,63360,25.644784,-111.829197,ON_NET,0,Colorado Springs,2025-01-21
488,2748 2nd Ave,Philadelphia,PA,55130,40.403534,-103.056078,NEAR_NET,38,Wichita,2024-12-03
489,1105 Main St,Charleston,SC,72878,25.754577,-107.883292,ON_NET,0,Charlotte,2025-07-18
490,3271 Main St,Wichita,KS,57921,40.732341,-101.385797,ON_NET,0,Baltimore,2025-09-21
491,2667 Cedar Ave,Charleston,SC,98174,40.441523,-107.44338,ON_NET,0,Kansas City,2025-04-28
492,7647 Elm St,Richmond,VA,31590,33.706418,-112.377607,ON_NET,0,Greenville,2023-11-03
493,1907 1st Ave,Silver Spring,MD,43030,40.014304,-112.712123,ON_NET,0,Wichita,2023-07-22
494,9211 Pine St,Rockville,MD,74568,36.500077,-113.998801,NEAR_NET,80,Baltimore,2023-02-21
495,6478 Market St,Augusta,GA,59678,33.124819,-101.306477,ON_NET,0,Pittsburgh,2024-11-19
496,9756 Oak St,Charleston,SC,49945,25.089907,-107.335795,ON_NET,0,Denver,2025-08-31
497,6869 Oak St,Lawrence,KS,89266,30.989162,-102.187453,NEAR_NET,75,Greenville,2023-08-07
498,6463 Cedar Ave,Topeka,KS,91169,25.651379,-105.037348,NEAR_NET,50,Kansas City,2023-07-11
499,8827 Pine St,Knoxville,TN,25821,29.326446,-109.407217,ON_NET,0,Raleigh,2025-04-22
500,4457 Market St,Greensboro,NC,29779,32.247473,-103.363005,NEAR_NET,103,Nashville,2025-06-22
501,8196 Market St,Savannah,GA,76421,40.814879,-109.098813,NEAR_NET,50,Colorado Springs,2024-02-05
502,15 2nd Ave,Pittsburgh,PA,23597,43.900099,-106.818561,ON_NET,0,Pittsburgh,2023-09-14
503,1663 Broadway,Charleston,SC,77353,38.322183,-102.02549,ON_NET,0,Kansas City,2024-11-13
504,8435 Elm St,Atlanta,GA,53402,33.881942,-114.367668,ON_NET,0,Charlotte,2023-11-09
505,987 Cedar Ave,Augusta,GA,74663,32.274451,-114.642978,ON_NET,0,Denver,2025-06-15
506,7345 Maple Ave,Lawrence,KS,77172,42.822186,-110.932922,ON_NET,0,Baltimore,2024-04-14
507,7914 2nd Ave,Colorado Springs,CO,10926,44.059511,-113.371223,ON_NET,0,Colorado Springs,2023-07-12
508,8332 Main St,Silver Spring,MD,61408,28.471654,-108.843573,NEAR_NET,164,Kansas City,2024-10-04
509,8927 Main St,St. Louis,MO,65142,35.964185,-106.113446,ON_NET,0,Boulder,2025-04-04
510,5912 Maple Ave,Savannah,GA,52493,28.237498,-108.627446,ON_NET,0,Denver,2025-03-23
511,2301 Pine St,Harrisburg,PA,77632,41.148802,-100.924696,ON_NET,0,Kansas City,2025-01-26
512,5121 Main St,Pittsburgh,PA,86975,30.952645,-105.744555,ON_NET,0,Charlotte,2025-09-12
513,5079 Cedar Ave,Durham,NC,35867,37.414315,-113.92071,NEAR_NET,60,Raleigh,2023-04-22
514,6464 Market St,Norfolk,VA,60530,40.865422,-107.088344,NEAR_NET,155,Boulder,2023-07-28
515,8222 Oak St,Rockville,MD,93507,28.196947,-113.38656,NEAR_NET,136,Denver,2023-06-05
516,7714 Broadway,Arlington,VA,97897,33.234466,-101.146937,ON_NET,0,Raleigh,2024-01-07
517,4734 1st Ave,Augusta,GA,44042,33.99315,-100.176183,NEAR_NET,5,Greenville,2025-04-26
518,5804 Elm St,Rockville,MD,57160,30.310435,-103.650639,ON_NET,0,Boulder,2025-06-15
519,9885 Oak St,Pittsburgh,PA,24584,43.600691,-102.488812,NEAR_NET,108,Colorado Springs,2025-09-17
520,6473 Market St,Lawrence,KS,62425,32.851399,-112.085988,ON_NET,0,Charlotte,2025-06-04
521,8722 Broadway,Raleigh,NC,64216,38.388208,-113.522697,ON_NET,0,Colorado Springs,2023-08-07
522,1090 Oak St,Charleston,SC,18754,35.042704,-112.779018,ON_NET,0,Pittsburgh,2023-08-30
523,6623 Pine St,Rockville,MD,85198,39.575091,-111.778138,ON_NET,0,Pittsburgh,2025-03-18
524,3650 Pine St,Raleigh,NC,75610,27.498835,-104.239077,ON_NET,0,Denver,2025-01-30
525,2160 Oak St,Savannah,GA,90262,42.92528,-110.680314,ON_NET,0,Nashville,2024-09-11
526,9966 Pine St,Harrisburg,PA,39342,31.18504,-105.396126,NEAR_NET,175,Nashville,2025-09-25
527,392 Broadway,Topeka,KS,19460,27.436767,-114.308659,NEAR_NET,118,Wichita,2023-01-04
528,2283 Cedar Ave,Memphis,TN,46052,35.067411,-114.659077,ON_NET,0,Nashville,2024-07-22
529,658 Broadway,Baltimore,MD,71287,27.210915,-103.367065,ON_NET,0,Pittsburgh,2025-08-16
530,8704 Elm St,Columbia,SC,40184,29.357208,-111.902024,NEAR_NET,98,Wichita,2023-10-16
531,509 Pine St,Silver Spring,MD,32680,25.56745,-107.570039,NEAR_NET,164,Raleigh,2024-01-19
532,1476 Elm St,Topeka,KS,24729,33.002788,-107.681298,ON_NET,0,Nashville,2024-02-23
533,906 Market St,Columbia,MO,79669,31.588504,-114.793787,ON_NET,0,Boulder,2024-10-19
534,2201 Oak St,Memphis,TN,69502,44.383658,-113.205825,ON_NET,0,Nashville,2024-04-10
535,3121 1st Ave,St. Louis,MO,62805,28.311365,-111.393343,NEAR_NET,95,Boulder,2025-01-23
536,7196 Pine St,Pittsburgh,PA,35786,40.466331,-103.017603,NEAR_NET,160,Baltimore,2025-05-08
537,385 Elm St,Arlington,VA,12067,26.254589,-103.084617,ON_NET,0,Denver,2025-05-05
538,9148 Market St,Harrisburg,PA,92257,28.272945,-109.483424,ON_NET,0,Charlotte,2023-11-10
539,2880 Market St,Wichita,KS,65183,42.979687,-112.06727,ON_NET,0,Richmond,2025-03-02
540,1758 2nd Ave,Topeka,KS,57694,40.549411,-107.068934,ON_NET,0,Boulder,2025-07-22
541,7812 2nd Ave,Columbia,SC,24269,35.566026,-103.768571,ON_NET,0,Raleigh,2023-08-03
542,357 Pine St,Columbia,SC,46478,43.906251,-114.708274,ON_NET,0,Raleigh,2025-03-04
543,7164 2nd Ave,Atlanta,GA,28129,25.257513,-103.210431,NEAR_NET,180,Nashville,2024-06-28
544,159 1st Ave,Atlanta,GA,70779,40.607376,-103.059384,ON_NET,0,Nashville,2024-07-01
545,5555 Elm St,Topeka,KS,83345,42.706274,-107.26792,NEAR_NET,144,Pittsburgh,2025-07-14
546,3998 Pine St,Kansas City,MO,56476,32.652217,-101.560272,ON_NET,0,Nashville,2025-06-17
547,7219 Cedar Ave,Raleigh,NC,84980,36.710741,-109.545679,NEAR_NET,199,Baltimore,2025-07-24
548,9351 Main St,Nashville,TN,71690,28.379477,-109.778543,ON_NET,0,Baltimore,2023-09-03
549,7738 Elm St,Memphis,TN,28582,27.367826,-107.46956,ON_NET,0,Raleigh,2023-03-06
550,90 Oak St,Kansas City,MO,84197,40.761065,-112.357344,NEAR_NET,55,Pittsburgh,2025-01-26
551,1546 Pine St,Boulder,CO,10123,25.761312,-100.730212,ON_NET,0,Wichita,2025-08-21
552,734 Broadway,Columbia,MO,93707,36.561199,-106.206085,ON_NET,0,Denver,2023-06-07
553,7855 1st Ave,Nashville,TN,22658,28.73875,-112.105963,ON_NET,0,Colorado Springs,2024-09-22
554,1743 Broadway,Harrisburg,PA,60019,43.327006,-100.033937,NEAR_NET,95,Denver,2024-07-23
555,898 Broadway,Wichita,KS,90620,30.819302,-105.954382,ON_NET,0,Denver,2024-07-27
556,3079 Broadway,Kansas City,MO,70029,29.175164,-110.621948,ON_NET,0,Baltimore,2023-08-01
557,1424 Broadway,Atlanta,GA,78114,32.050558,-101.410464,ON_NET,0,Baltimore,2023-09-02
558,6032 Maple Ave,Wichita,KS,49678,31.184197,-104.435793,ON_NET,0,Richmond,2024-09-12
559,3156 Main St,Rockville,MD,20335,26.499908,-101.705043,NEAR_NET,143,Baltimore,2025-02-24
560,8531 Oak St,Baltimore,MD,69719,44.674605,-113.856885,ON_NET,0,Nashville,2024-10-26
561,1317 Main St,Columbia,MO,17720,39.333415,-100.459322,NEAR_NET,145,Pittsburgh,2023-05-19
562,2956 Elm St,Atlanta,GA,48452,33.834778,-110.597388,ON_NET,0,Kansas City,2025-03-17
563,474 Market St,Norfolk,VA,60107,26.894344,-106.643193,ON_NET,0,Pittsburgh,2024-11-02
564,5350 Maple Ave,Memphis,TN,42734,25.263205,-108.067586,NEAR_NET,163,Charlotte,2023-08-25
565,5395 Main St,Harrisburg,PA,41297,42.796362,-111.918986,ON_NET,0,Greenville,2023-06-15
566,5149 Oak St,Wichita,KS,92179,31.739069,-100.963846,ON_NET,0,Boulder,2025-09-15
567,3475 Broadway,Nashville,TN,16999,37.998807,-108.0761,ON_NET,0,Raleigh,2025-08-11
568,1478 Pine St,Philadelphia,PA,38581,30.747783,-113.598021,ON_NET,0,Denver,2025-01-01
569,1948 2nd Ave,Norfolk,VA,90032,33.759841,-110.303184,NEAR_NET,89,Baltimore,2025-08-28
570,4081 Market St,Norfolk,VA,43702,44.211833,-101.376442,NEAR_NET,179,Wichita,2024-10-18
571,9695 2nd Ave,Arlington,VA,95998,26.388163,-101.018979,ON_NET,0,Raleigh,2023-11-08
572,1106 Broadway,Wichita,KS,11905,26.468979,-101.117252,NEAR_NET,65,Greenville,2023-04-26
573,8370 Maple Ave,Memphis,TN,68986,28.557831,-101.501333,NEAR_NET,16,Kansas City,2024-02-09
574,2848 Cedar Ave,Augusta,GA,22431,42.226153,-106.909482,ON_NET,0,Charlotte,2025-05-02
575,6366 Pine St,Kansas City,MO,23969,42.100253,-112.043074,NEAR_NET,5,Pittsburgh,2023-12-10
576,170 Pine St,Arlington,VA,19522,43.097746,-102.370534,ON_NET,0,Pittsburgh,2024-11-08
577,4319 2nd Ave,Rockville,MD,15984,27.873188,-101.456535,ON_NET,0,Denver,2024-01-28
578,1467 Elm St,Arlington,VA,86502,29.465177,-100.971986,ON_NET,0,Denver,2023-10-02
579,5967 Broadway,Durham,NC,33111,27.767197,-111.819688,NEAR_NET,146,Kansas City,2024-01-15
580,8579 1st Ave,Greenville,SC,42544,43.184784,-102.487367,ON_NET,0,Raleigh,2025-08-12
581,3187 Pine St,Boulder,CO,60355,42.06274,-103.613127,ON_NET,0,Richmond,2023-09-27
582,1641 Oak St,Denver,CO,58411,29.696263,-100.440898,NEAR_NET,137,Richmond,2024-05-14
583,7545 Broadway,Wichita,KS,74507,26.874674,-101.766534,NEAR_NET,90,Richmond,2025-08-03
584,6986 Cedar Ave,Raleigh,NC,17957,27.36621,-101.01858,ON_NET,0,Charlotte,2024-03-30
585,5556 Broadway,Nashville,TN,17509,26.430338,-103.336073,ON_NET,0,Baltimore,2023-08-10
586,6173 1st Ave,Silver Spring,MD,17851,43.873873,-107.872605,ON_NET,0,Wichita,2024-06-18
587,3489 1st Ave,Durham,NC,20889,34.546995,-107.027176,ON_NET,0,Richmond,2025-03-14
588,7432 Market St,Charlotte,NC,22836,29.106661,-109.944015,NEAR_NET,142,Charlotte,2023-03-11
589,7900 Maple Ave,Lawrence,KS,33589,35.190732,-109.413219,ON_NET,0,Greenville,2025-07-13
590,537 Broadway,Fort Collins,CO,94990,29.681746,-107.484931,ON_NET,0,Nashville,2023-05-23
591,6356 Market St,Greenville,SC,15472,42.146334,-105.515908,ON_NET,0,Pittsburgh,2023-07-06
592,9806 Cedar Ave,Kansas City,MO,20743,33.987612,-112.75136,ON_NET,0,Kansas City,2024-03-25
593,4998 Market St,Raleigh,NC,86454,28.987138,-100.993477,ON_NET,0,Denver,2024-11-26
594,5906 Cedar Ave,Charlotte,NC,40552,26.31648,-105.605686,NEAR_NET,63,Baltimore,2024-05-18
595,3555 Pine St,Columbia,MO,71661,29.038163,-114.993726,ON_NET,0,Richmond,2023-10-05
596,530 Oak St,St. Louis,MO,33266,31.863288,-110.030025,ON_NET,0,Denver,2024-08-05
597,3916 Main St,Greenville,SC,30291,37.150761,-103.867708,ON_NET,0,Richmond,2024-05-01
598,6343 2nd Ave,Philadelphia,PA,44219,29.808798,-101.808038,NEAR_NET,58,Raleigh,2023-06-02
599,9535 Market St,Raleigh,NC,17461,28.354956,-106.342662,ON_NET,0,Boulder,2024-08-22
600,4158 Elm St,Knoxville,TN,96730,29.459248,-102.261447,ON_NET,0,Baltimore,2023-10-03
601,855 Oak St,Atlanta,GA,23645,44.349394,-113.559471,ON_NET,0,Boulder,2023-10-23
602,6892 1st Ave,Raleigh,NC,79387,32.536946,-104.504138,NEAR_NET,10,Pittsburgh,2024-10-31
603,1920 Cedar Ave,Philadelphia,PA,41948,34.991872,-107.956249,ON_NET,0,Pittsburgh,2025-03-31
604,9157 Pine St,Charleston,SC,67146,26.520433,-113.463136,ON_NET,0,Nashville,2024-01-27
605,3885 Oak St,Durham,NC,58007,44.126039,-103.861561,ON_NET,0,Boulder,2024-12-18
606,7738 Pine St,Lone Tree,CO,98094,31.562244,-113.801812,ON_NET,0,Richmond,2024-05-01
607,2963 Cedar Ave,Charleston,SC,52502,40.713816,-103.493598,NEAR_NET,12,Raleigh,2023-04-02
608,6712 Oak St,Columbia,MO,27554,43.001819,-103.487447,ON_NET,0,Baltimore,2024-12-26
609,8109 Market St,Columbia,SC,26720,44.953433,-109.596969,ON_NET,0,Kansas City,2023-04-26
610,2238 Oak St,Lone Tree,CO,90738,33.415727,-101.166907,NEAR_NET,112,Nashville,2024-04-10
611,8905 Market St,Charleston,SC,55233,39.088711,-106.558286,ON_NET,0,Colorado Springs,2025-04-10
612,298 2nd Ave,Memphis,TN,61646,32.394131,-114.437224,ON_NET,0,Kansas City,2025-05-05
613,3352 Pine St,Philadelphia,PA,87617,44.326442,-102.944545,NEAR_NET,21,Kansas City,2024-10-26
614,1070 Elm St,Richmond,VA,69627,41.993068,-113.126942,NEAR_NET,74,Nashville,2023-02-16
615,9766 Broadway,Kansas City,MO,64035,39.512438,-104.086574,ON_NET,0,Boulder,2025-03-28
616,1415 Pine St,Boulder,CO,10515,28.471729,-102.618033,ON_NET,0,Baltimore,2025-03-15
617,402 1st Ave,Kansas City,MO,20809,43.69216,-114.549407,ON_NET,0,Colorado Springs,2024-04-26
618,8567 Market St,Greenville,SC,51963,30.835389,-111.212829,NEAR_NET,93,Kansas City,2023-12-08
619,4335 2nd Ave,Denver,CO,44807,26.82791,-109.360795,ON_NET,0,Baltimore,2025-09-23
620,5394 Market St,Richmond,VA,75766,34.835829,-102.825902,ON_NET,0,Greenville,2025-04-04
621,6937 Oak St,Boulder,CO,48685,39.340211,-103.441202,ON_NET,0,Boulder,2025-04-01
622,1085 Elm St,Nashville,TN,29955,28.825926,-110.616438,NEAR_NET,44,Richmond,2025-03-21
623,1538 Cedar Ave,Columbia,MO,84059,33.709432,-100.197225,NEAR_NET,34,Nashville,2023-08-09
624,3957 Maple Ave,Lawrence,KS,75706,33.469525,-107.997282,ON_NET,0,Baltimore,2023-02-28
625,395 Pine St,Boulder,CO,77212,30.816117,-109.5969,NEAR_NET,18,Baltimore,2024-04-10
626,3023 Pine St,Baltimore,MD,50781,44.906813,-113.478507,ON_NET,0,Colorado Springs,2023-06-11
627,7594 Market St,Boulder,CO,99286,44.17419,-111.915371,NEAR_NET,131,Kansas City,2024-02-11
628,5029 Main St,Charleston,SC,89850,31.310036,-104.401927,ON_NET,0,Charlotte,2024-06-10
629,2881 Pine St,Kansas City,MO,70523,25.604544,-104.808699,NEAR_NET,134,Greenville,2025-01-05
630,7816 Broadway,Harrisburg,PA,50733,40.508561,-101.593236,ON_NET,0,Boulder,2024-09-30
631,7932 1st Ave,Savannah,GA,43108,41.070543,-107.703334,ON_NET,0,Richmond,2023-11-22
632,6865 Market St,Memphis,TN,80121,33.936894,-113.913539,ON_NET,0,Charlotte,2024-09-25
633,7476 1st Ave,Denver,CO,93467,43.449214,-101.995751,ON_NET,0,Greenville,2023-05-13
634,585 Maple Ave,Lawrence,KS,96196,26.370799,-111.26022,ON_NET,0,Charlotte,2024-03-23
635,2382 Oak St,Pittsburgh,PA,22326,39.317463,-111.039895,NEAR_NET,44,Denver,2023-10-22
636,1167 Market St,Charlotte,NC,31493,41.37069,-109.054988,ON_NET,0,Raleigh,2023-06-23
637,6348 Oak St,Kansas City,MO,54306,32.24859,-113.366719,NEAR_NET,141,Richmond,2025-09-22
638,1512 Maple Ave,Pittsburgh,PA,60687,34.455377,-114.345962,ON_NET,0,Nashville,2025-04-10
639,6452 Pine St,Norfolk,VA,26991,39.979968,-113.732701,ON_NET,0,Richmond,2023-04-20
640,4071 Main St,Harrisburg,PA,43443,35.25644,-112.212178,NEAR_NET,11,Baltimore,2023-06-02
641,5145 2nd Ave,Rockville,MD,54774,38.652348,-109.894772,ON_NET,0,Denver,2025-04-21
642,9429 Market St,Boulder,CO,11365,40.749132,-103.814999,ON_NET,0,Denver,2025-07-09
643,3744 Market St,Colorado Springs,CO,44862,43.992173,-104.523526,ON_NET,0,Nashville,2023-12-28
644,4662 1st Ave,Savannah,GA,39772,25.251822,-110.136821,NEAR_NET,70,Pittsburgh,2025-02-27
645,865 2nd Ave,Baltimore,MD,29730,41.260299,-103.798257,NEAR_NET,31,Pittsburgh,2023-11-30
646,5041 2nd Ave,Savannah,GA,41431,35.782465,-105.046133,ON_NET,0,Denver,2023-12-20
647,2288 Broadway,Durham,NC,95518,43.221576,-111.903884,ON_NET,0,Greenville,2025-09-29
648,7714 Cedar Ave,Knoxville,TN,38065,39.58883,-105.413531,ON_NET,0,Boulder,2023-04-13
649,435 Main St,Topeka,KS,39765,32.400569,-109.225886,ON_NET,0,Richmond,2025-01-28
650,7580 Oak St,Boulder,CO,50781,41.047985,-114.310975,NEAR_NET,81,Kansas City,2024-10-15
651,5228 Market St,Rockville,MD,50832,39.781413,-105.284075,ON_NET,0,Boulder,2024-09-06
652,1131 Cedar Ave,Silver Spring,MD,68475,33.328273,-113.206929,ON_NET,0,Pittsburgh,2023-08-21
653,5946 Broadway,Kansas City,MO,57615,43.552101,-109.881881,NEAR_NET,48,Boulder,2024-11-01
654,7571 Elm St,Baltimore,MD,84610,33.647251,-110.762144,ON_NET,0,Raleigh,2023-04-05
655,8450 Market St,Durham,NC,23310,29.446558,-111.172225,ON_NET,0,Denver,2023-08-13
656,7111 2nd Ave,Charleston,SC,59884,37.738907,-101.154971,NEAR_NET,147,Raleigh,2023-07-26
657,5400 Broadway,Columbia,SC,34486,34.825457,-111.282702,ON_NET,0,Denver,2024-11-15
658,9203 2nd Ave,Greensboro,NC,34031,25.350954,-109.738931,ON_NET,0,Boulder,2025-06-08
659,885 Main St,Rockville,MD,37183,35.098194,-113.520402,ON_NET,0,Baltimore,2025-07-11
660,7586 2nd Ave,Columbia,MO,83395,29.267592,-102.298114,NEAR_NET,36,Richmond,2025-04-02
661,2242 Elm St,Fort Collins,CO,43966,37.08308,-103.506709,NEAR_NET,62,Wichita,2024-06-09
662,1523 Main St,Nashville,TN,54591,43.064704,-102.481437,ON_NET,0,Wichita,2024-07-05
663,8475 2nd Ave,Richmond,VA,40429,37.058431,-113.562098,ON_NET,0,Wichita,2025-09-26
664,1809 Cedar Ave,Silver Spring,MD,87879,39.211504,-104.088073,ON_NET,0,Raleigh,2025-08-05
665,8011 Main St,Pittsburgh,PA,68015,42.385113,-113.028315,NEAR_NET,103,Greenville,2024-11-24
666,5251 Cedar Ave,Atlanta,GA,32491,37.774186,-114.964169,NEAR_NET,185,Charlotte,2024-02-23
667,3740 2nd Ave,Kansas City,MO,63756,32.130939,-106.539716,ON_NET,0,Kansas City,2023-06-15
668,1402 2nd Ave,St. Louis,MO,35312,36.794635,-101.866973,ON_NET,0,Kansas City,2023-07-08
669,7216 Elm St,Savannah,GA,73733,34.46136,-104.156361,NEAR_NET,127,Greenville,2023-07-22
670,8349 2nd Ave,Memphis,TN,75558,28.383806,-101.099332,ON_NET,0,Baltimore,2024-01-28
671,1655 Market St,Lawrence,KS,65727,31.711444,-110.574426,ON_NET,0,Raleigh,2024-10-22
672,9391 Broadway,Greensboro,NC,10840,25.83284,-111.766556,ON_NET,0,Richmond,2023-12-29
673,6590 Oak St,Philadelphia,PA,91232,30.964453,-108.313303,NEAR_NET,151,Pittsburgh,2025-02-03
674,6004 Oak St,Boulder,CO,52810,36.800498,-110.158718,ON_NET,0,Charlotte,2025-03-31
675,2998 Maple Ave,Greensboro,NC,25128,27.719682,-113.566367,NEAR_NET,134,Denver,2024-09-23
676,7232 Cedar Ave,Columbia,SC,46002,32.268947,-113.427231,NEAR_NET,69,Charlotte,2024-07-16
677,7823 1st Ave,Harrisburg,PA,53597,30.090977,-109.145753,NEAR_NET,62,Nashville,2025-03-15
678,6080 Oak St,Richmond,VA,18807,32.25719,-113.694598,ON_NET,0,Greenville,2023-01-13
679,4727 Cedar Ave,Norfolk,VA,31000,43.785808,-105.658893,ON_NET,0,Boulder,2023-07-17
680,2313 2nd Ave,Kansas City,MO,50779,29.559743,-100.863828,NEAR_NET,59,Kansas City,2023-05-05
681,9035 Broadway,Overland Park,KS,21742,40.45793,-102.228474,ON_NET,0,Wichita,2023-02-10
682,6330 Oak St,Memphis,TN,22211,37.591334,-110.633233,NEAR_NET,44,Colorado Springs,2024-09-03
683,634 1st Ave,Durham,NC,17332,28.208997,-100.585183,NEAR_NET,22,Charlotte,2024-12-26
684,7601 2nd Ave,Charlotte,NC,24039,28.618482,-109.138879,NEAR_NET,111,Pittsburgh,2025-08-21
685,1990 Oak St,St. Louis,MO,52636,32.817992,-103.799697,ON_NET,0,Wichita,2024-05-09
686,2722 2nd Ave,Boulder,CO,29954,40.873937,-109.390486,ON_NET,0,Pittsburgh,2023-03-02
687,559 Cedar Ave,Memphis,TN,81739,40.818302,-108.635272,ON_NET,0,Richmond,2024-03-25
688,5531 Oak St,Lone Tree,CO,77024,43.867128,-112.891212,ON_NET,0,Greenville,2024-06-12
689,2877 Oak St,Greensboro,NC,30529,38.813496,-100.069022,ON_NET,0,Baltimore,2024-06-11
690,6794 Pine St,Colorado Springs,CO,84695,32.610479,-109.940409,NEAR_NET,83,Charlotte,2025-09-09
691,2652 Market St,Memphis,TN,59361,28.817258,-114.902672,NEAR_NET,108,Wichita,2025-03-22
692,9510 Market St,Baltimore,MD,51716,37.849761,-108.397757,ON_NET,0,Nashville,2023-12-11
693,4517 1st Ave,Greensboro,NC,74492,43.604215,-111.35423,NEAR_NET,78,Colorado Springs,2024-03-14
694,4828 Elm St,Lawrence,KS,76532,33.545629,-114.000385,ON_NET,0,Boulder,2024-08-26
695,6177 Maple Ave,Charlotte,NC,24901,37.122943,-106.530505,ON_NET,0,Baltimore,2025-04-08
696,7364 Market St,Richmond,VA,22789,25.713717,-112.51488,ON_NET,0,Kansas City,2023-08-08
697,4563 Market St,Topeka,KS,36960,43.39887,-114.146212,ON_NET,0,Greenville,2024-03-12
698,4558 Cedar Ave,Silver Spring,MD,94288,42.271712,-106.018846,ON_NET,0,Baltimore,2024-04-29
699,2383 Maple Ave,Wichita,KS,17015,37.038414,-112.974463,ON_NET,0,Baltimore,2025-01-28
700,6178 Pine St,Durham,NC,44041,41.298597,-100.498904,NEAR_NET,56,Richmond,2023-01-27
701,573 Pine St,Wichita,KS,70890,37.014672,-113.141113,ON_NET,0,Boulder,2025-01-16
702,9983 2nd Ave,Norfolk,VA,27907,37.904207,-111.367285,ON_NET,0,Pittsburgh,2023-07-10
703,5520 2nd Ave,Harrisburg,PA,31468,43.127926,-103.346894,NEAR_NET,6,Wichita,2023-09-14
704,3633 2nd Ave,Richmond,VA,90329,31.038789,-114.903118,ON_NET,0,Boulder,2024-10-07
705,7277 Pine St,Augusta,GA,22888,33.326529,-107.044759,NEAR_NET,35,Charlotte,2024-11-29
706,3811 Cedar Ave,Fort Collins,CO,73028,41.458361,-114.429961,NEAR_NET,102,Kansas City,2023-06-14
707,1971 Broadway,Philadelphia,PA,51714,33.102874,-102.516178,NEAR_NET,106,Colorado Springs,2025-07-09
708,8089 Maple Ave,Knoxville,TN,83822,32.353204,-108.310521,NEAR_NET,5,Nashville,2023-12-03
709,1572 Market St,Durham,NC,59768,44.195553,-114.724817,NEAR_NET,88,Colorado Springs,2024-05-25
710,5420 Oak St,Rockville,MD,85727,35.949633,-104.707827,ON_NET,0,Denver,2023-11-22
711,2041 Maple Ave,St. Louis,MO,69670,37.589606,-108.445334,ON_NET,0,Pittsburgh,2024-12-13
712,3250 Broadway,Columbia,SC,97149,38.397755,-105.405183,ON_NET,0,Nashville,2023-07-14
713,4011 Elm St,Norfolk,VA,18438,33.409867,-103.14454,ON_NET,0,Boulder,2023-07-30
714,1945 Pine St,Philadelphia,PA,97695,27.207232,-104.300449,NEAR_NET,95,Boulder,2023-07-17
715,39 Maple Ave,Silver Spring,MD,16454,44.498394,-101.313264,ON_NET,0,Kansas City,2023-11-17
716,154 Broadway,Silver Spring,MD,64492,32.000545,-110.651843,ON_NET,0,Greenville,2025-04-24
717,9399 Pine St,Charlotte,NC,33493,43.12321,-103.362306,NEAR_NET,130,Wichita,2025-08-12
718,9602 Broadway,Topeka,KS,52400,38.49644,-105.762291,ON_NET,0,Baltimore,2023-01-28
719,1820 Maple Ave,Lawrence,KS,77423,27.958434,-105.463406,ON_NET,0,Pittsburgh,2023-01-23
720,7014 Elm St,Denver,CO,79644,38.06874,-102.416874,ON_NET,0,Baltimore,2024-01-10
721,5891 Market St,Pittsburgh,PA,43432,35.870469,-102.438582,NEAR_NET,62,Colorado Springs,2023-06-02
722,2632 Maple Ave,Wichita,KS,75903,36.342176,-101.441028,NEAR_NET,148,Richmond,2024-02-27
723,257 Main St,Memphis,TN,40956,33.453257,-103.551328,ON_NET,0,Denver,2023-09-05
724,1526 Cedar Ave,Greenville,SC,87198,32.750471,-105.032797,ON_NET,0,Denver,2023-08-16
725,8252 Pine St,Fort Collins,CO,14930,37.080714,-102.713722,ON_NET,0,Boulder,2023-09-24
726,1465 Market St,Topeka,KS,95043,26.57679,-111.317537,ON_NET,0,Boulder,2024-06-08
727,2544 2nd Ave,Nashville,TN,50022,33.639033,-113.972722,ON_NET,0,Boulder,2024-12-24
728,2729 Elm St,Harrisburg,PA,15952,34.955251,-114.847586,ON_NET,0,Baltimore,2024-10-25
729,4677 Broadway,Charlotte,NC,15193,31.706891,-101.536885,NEAR_NET,92,Baltimore,2025-02-05
730,6636 2nd Ave,Columbia,MO,40005,38.391912,-106.499516,ON_NET,0,Pittsburgh,2024-04-09
731,7662 Main St,Overland Park,KS,39193,38.237263,-101.514587,ON_NET,0,Raleigh,2023-03-31
732,4723 Market St,Philadelphia,PA,53905,29.963357,-109.921444,NEAR_NET,42,Charlotte,2023-08-16
733,6835 Oak St,Fort Collins,CO,19057,28.114627,-101.056846,ON_NET,0,Greenville,2023-07-16
734,1646 Oak St,Arlington,VA,75837,38.608958,-103.794887,ON_NET,0,Boulder,2024-11-16
735,7348 Maple Ave,Memphis,TN,18318,43.677816,-112.217943,ON_NET,0,Richmond,2023-05-10
736,7934 Oak St,Charlotte,NC,26653,38.199736,-100.37724,ON_NET,0,Colorado Springs,2024-08-15
737,1859 Market St,Denver,CO,41460,26.075149,-108.745003,ON_NET,0,Baltimore,2023-10-02
738,6018 Oak St,Greenville,SC,46297,28.236008,-106.566712,ON_NET,0,Colorado Springs,2023-01-04
739,8921 Oak St,Charlotte,NC,40827,37.734637,-102.330651,ON_NET,0,Kansas City,2025-01-04
740,6245 1st Ave,Wichita,KS,98014,29.419951,-102.295067,NEAR_NET,14,Charlotte,2023-03-28
741,5225 Broadway,Arlington,VA,87100,33.839828,-114.311332,NEAR_NET,8,Nashville,2024-06-29
742,8509 Pine St,St. Louis,MO,73303,39.548869,-101.895582,NEAR_NET,101,Charlotte,2024-06-06
743,3656 Elm St,Philadelphia,PA,46361,38.190529,-101.930305,ON_NET,0,Denver,2024-03-04
744,9804 2nd Ave,Augusta,GA,15715,35.636558,-104.136847,NEAR_NET,100,Pittsburgh,2024-12-21
745,8486 Cedar Ave,Knoxville,TN,42632,39.087424,-113.075068,ON_NET,0,Greenville,2024-01-20
746,4811 Oak St,Harrisburg,PA,14173,41.371202,-107.238636,ON_NET,0,Baltimore,2024-11-29
747,7416 Market St,Columbia,MO,50159,34.100266,-101.292961,NEAR_NET,193,Charlotte,2025-01-20
748,7090 Maple Ave,Kansas City,MO,93261,32.328978,-100.251389,ON_NET,0,Greenville,2023-03-04
749,6721 Main St,Columbia,SC,67339,44.239602,-107.87161,NEAR_NET,90,Pittsburgh,2025-06-08
750,5587 Market St,Richmond,VA,71896,27.171328,-111.934899,NEAR_NET,51,Baltimore,2023-07-10
751,6060 Pine St,Nashville,TN,45370,42.926806,-100.648415,ON_NET,0,Colorado Springs,2025-07-05
752,7206 Maple Ave,Columbia,SC,65211,28.10771,-102.308708,NEAR_NET,15,Pittsburgh,2023-07-07
753,4612 Main St,Durham,NC,98430,42.054637,-104.972459,NEAR_NET,120,Colorado Springs,2025-07-01
754,6957 Pine St,Fort Collins,CO,29967,40.454709,-105.61971,ON_NET,0,Boulder,2023-04-25
755,8374 Oak St,Norfolk,VA,88023,44.767487,-114.802019,ON_NET,0,Raleigh,2024-02-04
756,191 Market St,Greensboro,NC,24951,40.224954,-104.994307,ON_NET,0,Pittsburgh,2023-02-05
757,3097 Pine St,Silver Spring,MD,12671,36.588177,-108.590681,NEAR_NET,122,Wichita,2023-10-28
758,3953 Pine St,Overland Park,KS,71772,36.719903,-108.619697,ON_NET,0,Charlotte,2023-05-05
759,5340 Broadway,Lone Tree,CO,94462,42.008095,-101.350106,ON_NET,0,Richmond,2023-05-06
760,7227 Maple Ave,Kansas City,MO,64584,43.302987,-100.23084,ON_NET,0,Wichita,2023-04-29
761,3948 Oak St,Columbia,SC,41925,31.670277,-103.608451,NEAR_NET,82,Pittsburgh,2023-02-08
762,4986 Maple Ave,Philadelphia,PA,71523,40.523408,-107.187238,NEAR_NET,22,Denver,2023-02-25
763,3742 Elm St,Savannah,GA,91911,28.503796,-108.987909,NEAR_NET,136,Richmond,2024-07-15
764,1723 Maple Ave,Atlanta,GA,67727,43.77675,-113.169605,ON_NET,0,Kansas City,2024-04-17
765,45 1st Ave,Columbia,MO,22255,43.099888,-102.757324,ON_NET,0,Denver,2024-03-18
766,7473 Maple Ave,Augusta,GA,55592,35.3221,-114.727389,ON_NET,0,Colorado Springs,2023-04-13
767,8099 1st Ave,Philadelphia,PA,58734,30.804919,-108.115957,ON_NET,0,Wichita,2025-06-17
768,5506 Elm St,Savannah,GA,90585,36.185229,-104.109471,ON_NET,0,Boulder,2024-09-24
769,6007 Broadway,Greenville,SC,94109,31.551294,-104.926557,ON_NET,0,Boulder,2023-12-13
770,381 Market St,Greensboro,NC,39131,33.040519,-102.429742,ON_NET,0,Pittsburgh,2023-07-22
771,5919 Oak St,Harrisburg,PA,43864,29.65441,-111.849449,ON_NET,0,Richmond,2023-06-18
772,964 Main St,Charleston,SC,59367,29.394217,-114.408952,ON_NET,0,Pittsburgh,2024-02-16
773,8952 Cedar Ave,Fort Collins,CO,35890,35.831498,-101.012051,ON_NET,0,Colorado Springs,2024-12-11
774,8230 2nd Ave,Durham,NC,90353,40.408232,-109.879862,ON_NET,0,Charlotte,2023-10-25
775,2205 Cedar Ave,Philadelphia,PA,90817,27.225361,-104.105958,ON_NET,0,Kansas City,2024-11-25
776,9373 Pine St,Columbia,MO,98063,33.850449,-112.452259,ON_NET,0,Nashville,2023-05-10
777,7357 Broadway,Columbia,SC,31514,41.443115,-109.79235,NEAR_NET,43,Boulder,2023-03-24
778,553 Elm St,Silver Spring,MD,77131,39.561825,-104.01361,NEAR_NET,85,Boulder,2023-07-01
779,268 Elm St,Pittsburgh,PA,40116,33.800551,-112.452928,NEAR_NET,175,Baltimore,2024-04-09
780,2999 Pine St,Pittsburgh,PA,51160,42.971245,-105.082349,NEAR_NET,144,Denver,2023-05-15
781,1092 1st Ave,Columbia,SC,12944,37.483006,-101.81215,NEAR_NET,5,Colorado Springs,2024-12-19
782,4576 Maple Ave,Arlington,VA,21452,42.401326,-114.847099,ON_NET,0,Richmond,2024-09-09
783,100 Main St,Arlington,VA,47527,29.553202,-101.372307,ON_NET,0,Pittsburgh,2024-07-19
784,9851 2nd Ave,Memphis,TN,60050,38.986345,-106.959973,NEAR_NET,162,Richmond,2025-04-29
785,4616 Maple Ave,Kansas City,MO,76910,29.955725,-110.425474,ON_NET,0,Raleigh,2023-02-16
786,3569 Cedar Ave,Kansas City,MO,58262,34.229952,-105.219132,ON_NET,0,Richmond,2023-01-28
787,5858 Oak St,Silver Spring,MD,37490,28.198995,-107.443608,ON_NET,0,Pittsburgh,2025-08-13
788,8605 2nd Ave,Atlanta,GA,65714,43.370868,-107.07754,ON_NET,0,Greenville,2023-08-03
789,4085 Market St,Columbia,MO,84853,41.248913,-101.415279,NEAR_NET,8,Kansas City,2023-12-23
790,4628 Oak St,Lawrence,KS,87760,36.572929,-103.266207,NEAR_NET,32,Raleigh,2025-04-06
791,4170 2nd Ave,Colorado Springs,CO,82370,36.050487,-108.449653,ON_NET,0,Colorado Springs,2024-12-18
792,1576 Oak St,Durham,NC,71219,33.733571,-110.100222,ON_NET,0,Raleigh,2023-07-13
793,6759 2nd Ave,Overland Park,KS,76789,42.937362,-104.766356,NEAR_NET,70,Pittsburgh,2025-06-06
794,4557 2nd Ave,Savannah,GA,23075,28.659194,-108.662205,ON_NET,0,Wichita,2023-06-15
795,8819 Pine St,Memphis,TN,67628,37.915817,-107.292137,NEAR_NET,8,Boulder,2023-01-18
796,637 Elm St,St. Louis,MO,23358,35.758095,-103.264318,NEAR_NET,132,Kansas City,2024-10-07
797,9395 2nd Ave,Baltimore,MD,94963,31.935167,-101.564567,ON_NET,0,Boulder,2025-10-01
798,2523 Maple Ave,Durham,NC,82179,41.24955,-112.019335,ON_NET,0,Denver,2025-05-09
799,3244 Pine St,Baltimore,MD,36978,26.681287,-103.790161,ON_NET,0,Boulder,2023-09-27
800,4112 Main St,Nashville,TN,49337,43.358454,-103.347644,NEAR_NET,83,Wichita,2025-03-18
